<?xml version="1.0" encoding="UTF-8"?>
<kml xmlns="http://www.opengis.net/kml/2.2" xmlns:gx="http://www.google.com/kml/ext/2.2">
    <Document id="59">
        <Placemark id="61">
            <name>Unnamed Location</name>
            <description>地址: 西貢街7號
現有層數: 3
建築年份: 1962</description>
            <Point id="60">
                <coordinates>114.1718956355212,22.306964884519683,0.0</coordinates>
            </Point>
        </Placemark>
        <Placemark id="63">
            <name>Unnamed Location</name>
            <description>地址: 西貢街9號
現有層數: 3
建築年份: 1962</description>
            <Point id="62">
                <coordinates>114.17193445784662,22.30691070204633,0.0</coordinates>
            </Point>
        </Placemark>
        <Placemark id="65">
            <name>Unnamed Location</name>
            <description>地址: 志和街13號
現有層數: 3
建築年份: 1950</description>
            <Point id="64">
                <coordinates>114.17242942020955,22.30684750196839,0.0</coordinates>
            </Point>
        </Placemark>
        <Placemark id="67">
            <name>Unnamed Location</name>
            <description>地址: 砵蘭街372號
現有層數: 3
建築年份: 1953</description>
            <Point id="66">
                <coordinates>114.1679834329696,22.32352683684684,0.0</coordinates>
            </Point>
        </Placemark>
        <Placemark id="69">
            <name>Unnamed Location</name>
            <description>地址: 鴉蘭街6號
現有層數: 3
建築年份: 1945</description>
            <Point id="68">
                <coordinates>114.16809993723264,22.32305725248094,0.0</coordinates>
            </Point>
        </Placemark>
        <Placemark id="71">
            <name>Unnamed Location</name>
            <description>地址: 砵蘭街354-362號
現有層數: 4
建築年份: 1948</description>
            <Point id="70">
                <coordinates>114.16836209676008,22.32154012707476,0.0</coordinates>
            </Point>
        </Placemark>
        <Placemark id="73">
            <name>Unnamed Location</name>
            <description>地址: 砵蘭街378A號
現有層數: 4
建築年份: 1953</description>
            <Point id="72">
                <coordinates>114.16797372443575,22.32356295867575,0.0</coordinates>
            </Point>
        </Placemark>
        <Placemark id="75">
            <name>Unnamed Location</name>
            <description>地址: 永星里5號
現有層數: 5
建築年份: 1972</description>
            <Point id="74">
                <coordinates>114.17064932106372,22.311019583895828,0.0</coordinates>
            </Point>
        </Placemark>
        <Placemark id="77">
            <name>Unnamed Location</name>
            <description>地址: 石壁道11號
現有層數: 5
建築年份: 1954</description>
            <Point id="76">
                <coordinates>114.17157522468096,22.310766759626237,0.0</coordinates>
            </Point>
        </Placemark>
        <Placemark id="79">
            <name>Unnamed Location</name>
            <description>地址: 西洋菜北街165號
現有層數: 5
建築年份: 1964</description>
            <Point id="78">
                <coordinates>114.16846861330347,22.325748387380138,0.0</coordinates>
            </Point>
        </Placemark>
        <Placemark id="81">
            <name>Unnamed Location</name>
            <description>地址: 西貢街11號
現有層數: 5
建築年份: 1961</description>
            <Point id="80">
                <coordinates>114.1719829843091,22.30688361167848,0.0</coordinates>
            </Point>
        </Placemark>
        <Placemark id="83">
            <name>Unnamed Location</name>
            <description>地址: 西貢街13號
現有層數: 5
建築年份: 1961</description>
            <Point id="82">
                <coordinates>114.17202180194188,22.306964888307878,0.0</coordinates>
            </Point>
        </Placemark>
        <Placemark id="85">
            <name>Unnamed Location</name>
            <description>地址: 界限街38A號
現有層數: 5
建築年份: 1961</description>
            <Point id="84">
                <coordinates>114.1673911631572,22.326326285787765,0.0</coordinates>
            </Point>
        </Placemark>
        <Placemark id="87">
            <name>Unnamed Location</name>
            <description>地址: 砵蘭街420號
現有層數: 5
建築年份: 1967</description>
            <Point id="86">
                <coordinates>114.1675950502708,22.325540636455106,0.0</coordinates>
            </Point>
        </Placemark>
        <Placemark id="89">
            <name>Unnamed Location</name>
            <description>地址: 砵蘭街446-448號
現有層數: 5
建築年份: 1965</description>
            <Point id="88">
                <coordinates>114.16745911975106,22.32615470858248,0.0</coordinates>
            </Point>
        </Placemark>
        <Placemark id="91">
            <name>Unnamed Location</name>
            <description>地址: 砵蘭街456號
現有層數: 5
建築年份: 1961</description>
            <Point id="90">
                <coordinates>114.1673911631572,22.326326285787765,0.0</coordinates>
            </Point>
        </Placemark>
        <Placemark id="93">
            <name>Unnamed Location</name>
            <description>地址: 寧波街27號
現有層數: 5
建築年份: 1965</description>
            <Point id="92">
                <coordinates>114.17103189458749,22.306630723439877,0.0</coordinates>
            </Point>
        </Placemark>
        <Placemark id="95">
            <name>Unnamed Location</name>
            <description>地址: 石壁道15號
現有層數: 6
建築年份: 1978</description>
            <Point id="94">
                <coordinates>114.1716334532374,22.31086609814542,0.0</coordinates>
            </Point>
        </Placemark>
        <Placemark id="97">
            <name>Unnamed Location</name>
            <description>地址: 旺角道39-39B號/砵蘭街320號
現有層數: 6
建築年份: 1958</description>
            <Point id="96">
                <coordinates>114.16845446612834,22.32042044016454,0.0</coordinates>
            </Point>
        </Placemark>
        <Placemark id="99">
            <name>Unnamed Location</name>
            <description>地址: 長樂街6-12A號
現有層數: 6
建築年份: 1966</description>
            <Point id="98">
                <coordinates>114.17196358160987,22.30666687649548,0.0</coordinates>
            </Point>
        </Placemark>
        <Placemark id="101">
            <name>Unnamed Location</name>
            <description>地址: 砵蘭街202-204號
現有層數: 6
建築年份: 1958</description>
            <Point id="100">
                <coordinates>114.1689641249872,22.31709710492686,0.0</coordinates>
            </Point>
        </Placemark>
        <Placemark id="103">
            <name>Unnamed Location</name>
            <description>地址: 砵蘭街296-298號
現有層數: 6
建築年份: 1958</description>
            <Point id="102">
                <coordinates>114.16870190236853,22.31995979071516,0.0</coordinates>
            </Point>
        </Placemark>
        <Placemark id="105">
            <name>Unnamed Location</name>
            <description>地址: 砵蘭街300號
現有層數: 6
建築年份: 1975</description>
            <Point id="104">
                <coordinates>114.16869219164882,22.32004106557135,0.0</coordinates>
            </Point>
        </Placemark>
        <Placemark id="107">
            <name>Unnamed Location</name>
            <description>地址: 砵蘭街302號
現有層數: 6
建築年份: 1959</description>
            <Point id="106">
                <coordinates>114.1686921890309,22.320086218539345,0.0</coordinates>
            </Point>
        </Placemark>
        <Placemark id="109">
            <name>Unnamed Location</name>
            <description>地址: 砵蘭街314-316號
現有層數: 6
建築年份: 1967</description>
            <Point id="108">
                <coordinates>114.16861452028633,22.3204384077653,0.0</coordinates>
            </Point>
        </Placemark>
        <Placemark id="111">
            <name>Unnamed Location</name>
            <description>地址: 砵蘭街324號
現有層數: 6
建築年份: 1963</description>
            <Point id="110">
                <coordinates>114.16849802153088,22.320880900875515,0.0</coordinates>
            </Point>
        </Placemark>
        <Placemark id="113">
            <name>Unnamed Location</name>
            <description>地址: 砵蘭街326號
現有層數: 6
建築年份: 1959</description>
            <Point id="112">
                <coordinates>114.1685077243892,22.32093508492999,0.0</coordinates>
            </Point>
        </Placemark>
        <Placemark id="115">
            <name>Unnamed Location</name>
            <description>地址: 砵蘭街364-366號
現有層數: 6
建築年份: 1975</description>
            <Point id="114">
                <coordinates>114.16805140612423,22.32305724986023,0.0</coordinates>
            </Point>
        </Placemark>
        <Placemark id="117">
            <name>Unnamed Location</name>
            <description>地址: 砵蘭街392號-398號
現有層數: 6
建築年份: 1973</description>
            <Point id="116">
                <coordinates>114.16776982132988,22.324673709868648,0.0</coordinates>
            </Point>
        </Placemark>
        <Placemark id="119">
            <name>Unnamed Location</name>
            <description>地址: 砵蘭街438-440號
現有層數: 6
建築年份: 1969</description>
            <Point id="118">
                <coordinates>114.16750766453056,22.32596506905571,0.0</coordinates>
            </Point>
        </Placemark>
        <Placemark id="121">
            <name>Unnamed Location</name>
            <description>地址: 鴉蘭街2-4號
現有層數: 6
建築年份: 1979</description>
            <Point id="120">
                <coordinates>114.16815817233052,22.323093377967584,0.0</coordinates>
            </Point>
        </Placemark>
        <Placemark id="123">
            <name>Unnamed Location</name>
            <description>地址: 石壁道5-7A號
現有層數: 7
建築年份: 1970</description>
            <Point id="122">
                <coordinates>114.1717744350107,22.310394729627564,0.0</coordinates>
            </Point>
        </Placemark>
        <Placemark id="125">
            <name>Unnamed Location</name>
            <description>地址: 砵蘭街336號
現有層數: 7
建築年份: 1962</description>
            <Point id="124">
                <coordinates>114.16846888825395,22.321133755967864,0.0</coordinates>
            </Point>
        </Placemark>
        <Placemark id="127">
            <name>Unnamed Location</name>
            <description>地址: 砵蘭街338號
現有層數: 7
建築年份: 1962</description>
            <Point id="126">
                <coordinates>114.1684591794723,22.32117890842893,0.0</coordinates>
            </Point>
        </Placemark>
        <Placemark id="129">
            <name>Unnamed Location</name>
            <description>地址: 永星里2A號
現有層數: 8
建築年份: 1962</description>
            <Point id="128">
                <coordinates>114.16950799127692,22.31055897558977,0.0</coordinates>
            </Point>
        </Placemark>
        <Placemark id="131">
            <name>Unnamed Location</name>
            <description>地址: 白加士街68-70號
現有層數: 8
建築年份: 1970</description>
            <Point id="130">
                <coordinates>114.1708475341011,22.30578183949675,0.0</coordinates>
            </Point>
        </Placemark>
        <Placemark id="133">
            <name>Unnamed Location</name>
            <description>地址: 西洋菜北街181-185號
現有層數: 8
建築年份: 1961</description>
            <Point id="132">
                <coordinates>114.1683326869516,22.32635342963912,0.0</coordinates>
            </Point>
        </Placemark>
        <Placemark id="135">
            <name>Unnamed Location</name>
            <description>地址: 西洋菜南街55號
現有層數: 8
建築年份: 1963</description>
            <Point id="134">
                <coordinates>114.16992491839912,22.31875877835409,0.0</coordinates>
            </Point>
        </Placemark>
        <Placemark id="137">
            <name>Unnamed Location</name>
            <description>地址: 南京街23-25號
現有層數: 8
建築年份: 1960</description>
            <Point id="136">
                <coordinates>114.17234210459078,22.30589928564476,0.0</coordinates>
            </Point>
        </Placemark>
        <Placemark id="139">
            <name>Unnamed Location</name>
            <description>地址: 砵蘭街282號
現有層數: 8
建築年份: 1945</description>
            <Point id="138">
                <coordinates>114.16876015450867,22.319679845214036,0.0</coordinates>
            </Point>
        </Placemark>
        <Placemark id="141">
            <name>Unnamed Location</name>
            <description>地址: 砵蘭街284-286號
現有層數: 8
建築年份: 1959</description>
            <Point id="140">
                <coordinates>114.16875044384214,22.31976112007652,0.0</coordinates>
            </Point>
        </Placemark>
        <Placemark id="143">
            <name>Unnamed Location</name>
            <description>地址: 砵蘭街288-290號
現有層數: 8
建築年份: 1962</description>
            <Point id="142">
                <coordinates>114.16874073316436,22.31984239493761,0.0</coordinates>
            </Point>
        </Placemark>
        <Placemark id="145">
            <name>Unnamed Location</name>
            <description>地址: 砵蘭街292-294號
現有層數: 8
建築年份: 1966</description>
            <Point id="144">
                <coordinates>114.16849809497369,22.319643709582987,0.0</coordinates>
            </Point>
        </Placemark>
        <Placemark id="147">
            <name>Unnamed Location</name>
            <description>地址: 砵蘭街304-306號
現有層數: 8
建築年份: 1965</description>
            <Point id="146">
                <coordinates>114.16861452980088,22.32027585708636,0.0</coordinates>
            </Point>
        </Placemark>
        <Placemark id="149">
            <name>Unnamed Location</name>
            <description>地址: 砵蘭街310-312號
現有層數: 8
建築年份: 1974</description>
            <Point id="148">
                <coordinates>114.16864364209506,22.3203751950856,0.0</coordinates>
            </Point>
        </Placemark>
        <Placemark id="151">
            <name>Unnamed Location</name>
            <description>地址: 砵蘭街318號
現有層數: 8
建築年份: 1964</description>
            <Point id="150">
                <coordinates>114.16857569293748,22.320492589352316,0.0</coordinates>
            </Point>
        </Placemark>
        <Placemark id="153">
            <name>Unnamed Location</name>
            <description>地址: 砵蘭街328-330號
現有層數: 8
建築年份: 1959</description>
            <Point id="152">
                <coordinates>114.1681485834183,22.321196953279863,0.0</coordinates>
            </Point>
        </Placemark>
        <Placemark id="155">
            <name>Unnamed Location</name>
            <description>地址: 白加士街86-90號
現有層數: 9
建築年份: 1962</description>
            <Point id="154">
                <coordinates>114.17098339546617,22.30599857907491,0.0</coordinates>
            </Point>
        </Placemark>
        <Placemark id="157">
            <name>Unnamed Location</name>
            <description>地址: 西洋菜南街103-109號
現有層數: 9
建築年份: 1965</description>
            <Point id="156">
                <coordinates>114.16937153962331,22.32141374836684,0.0</coordinates>
            </Point>
        </Placemark>
        <Placemark id="159">
            <name>Unnamed Location</name>
            <description>地址: 砵蘭街380-386號
現有層數: 9
建築年份: 1965</description>
            <Point id="158">
                <coordinates>114.1678280807658,22.3243395813332,0.0</coordinates>
            </Point>
        </Placemark>
        <Placemark id="161">
            <name>Unnamed Location</name>
            <description>地址: 砵蘭街414號
現有層數: 9
建築年份: 1965</description>
            <Point id="160">
                <coordinates>114.16761447136116,22.32541420933402,0.0</coordinates>
            </Point>
        </Placemark>
        <Placemark id="163">
            <name>Unnamed Location</name>
            <description>地址: 砵蘭街424-428號
現有層數: 9
建築年份: 1966</description>
            <Point id="162">
                <coordinates>114.16755621693794,22.32565803187508,0.0</coordinates>
            </Point>
        </Placemark>
        <Placemark id="165">
            <name>Unnamed Location</name>
            <description>地址: 砵蘭街442-444號
現有層數: 9
建築年份: 1965</description>
            <Point id="164">
                <coordinates>114.1674785386416,22.32606440383502,0.0</coordinates>
            </Point>
        </Placemark>
        <Placemark id="167">
            <name>Unnamed Location</name>
            <description>地址: 荔枝角道15-21號
現有層數: 9
建築年份: 1958</description>
            <Point id="166">
                <coordinates>114.1682067511729,22.322316749759786,0.0</coordinates>
            </Point>
        </Placemark>
        <Placemark id="169">
            <name>Unnamed Location</name>
            <description>地址: 白加士街66號
現有層數: 10
建築年份: 1964</description>
            <Point id="168">
                <coordinates>114.17085724411992,22.305664441930023,0.0</coordinates>
            </Point>
        </Placemark>
        <Placemark id="171">
            <name>Unnamed Location</name>
            <description>地址: 西洋菜北街175-177號
現有層數: 10
建築年份: 1964</description>
            <Point id="170">
                <coordinates>114.1683909457465,22.32601930097012,0.0</coordinates>
            </Point>
        </Placemark>
        <Placemark id="173">
            <name>Unnamed Location</name>
            <description>地址: 西洋菜北街179-179A號
現有層數: 10
建築年份: 1964</description>
            <Point id="172">
                <coordinates>114.16839093705602,22.32616379036058,0.0</coordinates>
            </Point>
        </Placemark>
        <Placemark id="175">
            <name>Unnamed Location</name>
            <description>地址: 南京街3-5號
現有層數: 10
建築年份: 1970</description>
            <Point id="174">
                <coordinates>114.17105134116484,22.305745724445632,0.0</coordinates>
            </Point>
        </Placemark>
        <Placemark id="177">
            <name>Unnamed Location</name>
            <description>地址: 砵蘭街416-418號
現有層數: 10
建築年份: 1969</description>
            <Point id="176">
                <coordinates>114.16760476082034,22.32547742289511,0.0</coordinates>
            </Point>
        </Placemark>
        <Placemark id="179">
            <name>Unnamed Location</name>
            <description>地址: 砵蘭街430-436A號
現有層數: 10
建築年份: 1966</description>
            <Point id="178">
                <coordinates>114.16752708755476,22.32581155019022,0.0</coordinates>
            </Point>
        </Placemark>
    </Document>
</kml>
