<?xml version="1.0" encoding="UTF-8"?>
<kml xmlns="http://www.opengis.net/kml/2.2" xmlns:gx="http://www.google.com/kml/ext/2.2">
    <Document id="1">
        <Placemark id="3">
            <name>南京街11號至21號</name>
            <description>大廈名稱: /
Address: 南京街11號至21號
買家/相關公司（附相關報導連結）: 樂風集團及財團</description>
            <Point id="2">
                <coordinates>114.1711619621858,22.30592032732513,0.0</coordinates>
            </Point>
        </Placemark>
        <Placemark id="5">
            <name>彌敦道310號</name>
            <description>大廈名稱: /
Address: 彌敦道310號
買家/相關公司（附相關報導連結）: (2019年全幢標售)</description>
            <Point id="4">
                <coordinates>114.1717986206536,22.30595345335756,0.0</coordinates>
            </Point>
        </Placemark>
        <Placemark id="7">
            <name>長樂街22至28號</name>
            <description>大廈名稱: /
Address: 長樂街22至28號
買家/相關公司（附相關報導連結）: 大鴻輝興業</description>
            <Point id="6">
                <coordinates>114.17204789779574,22.306572057612357,0.0</coordinates>
            </Point>
        </Placemark>
        <Placemark id="9">
            <name>彌敦道638-640號</name>
            <description>大廈名稱: 東亞銀行旺角大廈
Address: 彌敦道638-640號
買家/相關公司（附相關報導連結）: 東亞銀行</description>
            <Point id="8">
                <coordinates>114.16976963723435,22.31848785380957,0.0</coordinates>
            </Point>
        </Placemark>
        <Placemark id="11">
            <name>彌敦道241-243號</name>
            <description>大廈名稱: 「香港體檢中心」
Address: 彌敦道241-243號
買家/相關公司（附相關報導連結）: 資本策略</description>
            <Point id="10">
                <coordinates>114.17136192797624,22.305077470075798,0.0</coordinates>
            </Point>
        </Placemark>
        <Placemark id="13">
            <name>彌敦道523號</name>
            <description>大廈名稱: 禮基大廈
Address: 彌敦道523號
買家/相關公司（附相關報導連結）: YMCA</description>
            <Point id="12">
                <coordinates>114.17044931207904,22.31273539067224,0.0</coordinates>
            </Point>
        </Placemark>
        <Placemark id="15">
            <name>彌敦道317至321號</name>
            <description>大廈名稱: 金漢大廈
Address: 彌敦道317至321號
買家/相關公司（附相關報導連結）: 永倫集團</description>
            <Point id="14">
                <coordinates>114.17168213006671,22.30677523511097,0.0</coordinates>
            </Point>
        </Placemark>
        <Placemark id="17">
            <name>彌敦道315號</name>
            <description>大廈名稱: /
Address: 彌敦道315號
買家/相關公司（附相關報導連結）: 永倫集團</description>
            <Point id="16">
                <coordinates>114.17126483525912,22.30616113993812,0.0</coordinates>
            </Point>
        </Placemark>
        <Placemark id="19">
            <name>彌敦道487至489號</name>
            <description>大廈名稱: Casa Hotel
Address: 彌敦道487至489號
買家/相關公司（附相關報導連結）: （一個美資基金）</description>
            <Point id="18">
                <coordinates>114.17168213006671,22.30677523511097,0.0</coordinates>
            </Point>
        </Placemark>
        <Placemark id="21">
            <name>彌敦道673號</name>
            <description>大廈名稱: 旺角滙豐大廈
Address: 彌敦道673號
買家/相關公司（附相關報導連結）: 滙豐</description>
            <Point id="20">
                <coordinates>114.16918726125684,22.318885173592708,0.0</coordinates>
            </Point>
        </Placemark>
        <Placemark id="23">
            <name>彌敦道343-349號</name>
            <description>大廈名稱: 宏利公積金大廈
Address: 彌敦道343-349號
買家/相關公司（附相關報導連結）: 永安集團</description>
            <Point id="22">
                <coordinates>114.17116773303272,22.307443482968623,0.0</coordinates>
            </Point>
        </Placemark>
        <Placemark id="25">
            <name>彌敦道579號</name>
            <description>大廈名稱: 艾麗大廈
Address: 彌敦道579號
買家/相關公司（附相關報導連結）: 周大福有關人士</description>
            <Point id="24">
                <coordinates>114.16990567136092,22.315417456660995,0.0</coordinates>
            </Point>
        </Placemark>
        <Placemark id="27">
            <name>彌敦道721至725號</name>
            <description>大廈名稱: 大鴻輝(旺角)中心
Address: 彌敦道721至725號
買家/相關公司（附相關報導連結）: 大鴻輝 (至少60%)</description>
            <Point id="26">
                <coordinates>114.17168213006671,22.30677523511097,0.0</coordinates>
            </Point>
        </Placemark>
        <Placemark id="29">
            <name>彌敦道688號</name>
            <description>大廈名稱: 旺角中心
Address: 彌敦道688號
買家/相關公司（附相關報導連結）: 九龍建業</description>
            <Point id="28">
                <coordinates>114.16956573002484,22.320095290623893,0.0</coordinates>
            </Point>
        </Placemark>
        <Placemark id="31">
            <name>彌敦道582-592號</name>
            <description>大廈名稱: 信和中心
Address: 彌敦道582-592號
買家/相關公司（附相關報導連結）: 九龍建業</description>
            <Point id="30">
                <coordinates>114.170284160985,22.316112828458884,0.0</coordinates>
            </Point>
        </Placemark>
        <Placemark id="33">
            <name>彌敦道610號</name>
            <description>大廈名稱: 荷里活商業中心
Address: 彌敦道610號
買家/相關公司（附相關報導連結）: 恆隆地產</description>
            <Point id="32">
                <coordinates>114.17020647670714,22.3169255790875,0.0</coordinates>
            </Point>
        </Placemark>
        <Placemark id="35">
            <name>彌敦道555號</name>
            <description>大廈名稱: 九龍行
Address: 彌敦道555號
買家/相關公司（附相關報導連結）: 大鴻輝興業</description>
            <Point id="34">
                <coordinates>114.1701677850755,22.31415318370929,0.0</coordinates>
            </Point>
        </Placemark>
        <Placemark id="37">
            <name>彌敦道625及639 號</name>
            <description>大廈名稱: 雅蘭中心
Address: 彌敦道625及639 號
買家/相關公司（附相關報導連結）: 恆隆地產</description>
            <Point id="36">
                <coordinates>114.16936700125729,22.31811520099012,0.0</coordinates>
            </Point>
        </Placemark>
        <Placemark id="39">
            <name>彌敦道636 號</name>
            <description>大廈名稱: 銀行中心
Address: 彌敦道636 號
買家/相關公司（附相關報導連結）: 招商永隆銀行</description>
            <Point id="38">
                <coordinates>114.16981818345336,22.318153723879576,0.0</coordinates>
            </Point>
        </Placemark>
        <Placemark id="41">
            <name>彌敦道750號</name>
            <description>大廈名稱: 始創中心
Address: 彌敦道750號
買家/相關公司（附相關報導連結）: 九龍建業</description>
            <Point id="40">
                <coordinates>114.16902204437127,22.322768320619687,0.0</coordinates>
            </Point>
        </Placemark>
        <Placemark id="43">
            <name>彌敦道611-615號</name>
            <description>大廈名稱: 飛達商業中心
Address: 彌敦道611-615號
買家/相關公司（附相關報導連結）: 「小巴大王」馬亞木</description>
            <Point id="42">
                <coordinates>114.1695464707494,22.31715131571083,0.0</coordinates>
            </Point>
        </Placemark>
        <Placemark id="45">
            <name>彌敦道585號</name>
            <description>大廈名稱: 富時中心
Address: 彌敦道585號
買家/相關公司（附相關報導連結）: 陽光房地產基金</description>
            <Point id="44">
                <coordinates>114.169828013653,22.315661279490648,0.0</coordinates>
            </Point>
        </Placemark>
        <Placemark id="47">
            <name>彌敦道591號</name>
            <description>大廈名稱: 豐怡中心(前名豐順商業大廈)
Address: 彌敦道591號
買家/相關公司（附相關報導連結）: 陽光房地產基金</description>
            <Point id="46">
                <coordinates>114.16977947149614,22.31593219533893,0.0</coordinates>
            </Point>
        </Placemark>
        <Placemark id="49">
            <name>西貢街23號</name>
            <description>大廈名稱: 彩鴻酒店
Address: 西貢街23號
買家/相關公司（附相關報導連結）: 大鴻輝興業</description>
            <Point id="48">
                <coordinates>114.17233236543908,22.306964897214574,0.0</coordinates>
            </Point>
        </Placemark>
        <Placemark id="51">
            <name>茂林街2號</name>
            <description>大廈名稱: 逸林酒店
Address: 茂林街2號
買家/相關公司（附相關報導連結）: 一內地業主</description>
            <Point id="50">
                <coordinates>114.17192472940556,22.30757896673727,0.0</coordinates>
            </Point>
        </Placemark>
        <Placemark id="53">
            <name>彌敦道761號</name>
            <description>大廈名稱: 藍馬之城
Address: 彌敦道761號
買家/相關公司（附相關報導連結）: 藍馬集團</description>
            <Point id="52">
                <coordinates>114.1680124808016,22.32465566207248,0.0</coordinates>
            </Point>
        </Placemark>
        <Placemark id="55">
            <name>彌敦道664號</name>
            <description>大廈名稱: 惠豐中心
Address: 彌敦道664號
買家/相關公司（附相關報導連結）: 中建企業許氏家族</description>
            <Point id="54">
                <coordinates>114.16972107340447,22.319165146314205,0.0</coordinates>
            </Point>
        </Placemark>
        <Placemark id="57">
            <name>彌敦道348號</name>
            <description>大廈名稱: (前九龍諾富特酒店)
Address: 彌敦道348號
買家/相關公司（附相關報導連結）: 資本策略地產有限公司</description>
            <Point id="56">
                <coordinates>114.17193444714624,22.307217742721512,0.0</coordinates>
            </Point>
        </Placemark>
    </Document>
</kml>
