<?xml version="1.0" encoding="UTF-8"?>
<kml xmlns="http://www.opengis.net/kml/2.2">
  <Document>
    <name>香港瀑布地圖</name>
    <description><![CDATA[綠色=位於集水區外<br>藍色=位於集水區內<br><br>《水務設施條例》第30條2a禁止任何人進入集水區（構成水務設施部分）的水中或在其中浸洗或沖洗]]></description>
    <Style id="icon-1892-0288D1-nodesc-normal">
      <IconStyle>
        <color>ffd18802</color>
        <scale>1</scale>
        <Icon>
          <href>https://maps.google.com/mapfiles/kml/paddle/wht-blank.png</href>
        </Icon>
      </IconStyle>
      <LabelStyle>
        <scale>0</scale>
      </LabelStyle>
      <BalloonStyle>
        <text><![CDATA[<h3>$[name]</h3>]]></text>
      </BalloonStyle>
    </Style>
    <Style id="icon-1892-0288D1-nodesc-highlight">
      <IconStyle>
        <color>ffd18802</color>
        <scale>1</scale>
        <Icon>
          <href>https://maps.google.com/mapfiles/kml/paddle/wht-blank.png</href>
        </Icon>
      </IconStyle>
      <LabelStyle>
        <scale>1</scale>
      </LabelStyle>
      <BalloonStyle>
        <text><![CDATA[<h3>$[name]</h3>]]></text>
      </BalloonStyle>
    </Style>
    <StyleMap id="icon-1892-0288D1-nodesc">
      <Pair>
        <key>normal</key>
        <styleUrl>#icon-1892-0288D1-nodesc-normal</styleUrl>
      </Pair>
      <Pair>
        <key>highlight</key>
        <styleUrl>#icon-1892-0288D1-nodesc-highlight</styleUrl>
      </Pair>
    </StyleMap>
    <Style id="icon-1892-0F9D58-nodesc-normal">
      <IconStyle>
        <color>ff589d0f</color>
        <scale>1</scale>
        <Icon>
          <href>https://maps.google.com/mapfiles/kml/paddle/wht-blank.png</href>
        </Icon>
      </IconStyle>
      <LabelStyle>
        <scale>0</scale>
      </LabelStyle>
      <BalloonStyle>
        <text><![CDATA[<h3>$[name]</h3>]]></text>
      </BalloonStyle>
    </Style>
    <Style id="icon-1892-0F9D58-nodesc-highlight">
      <IconStyle>
        <color>ff589d0f</color>
        <scale>1</scale>
        <Icon>
          <href>https://maps.google.com/mapfiles/kml/paddle/wht-blank.png</href>
        </Icon>
      </IconStyle>
      <LabelStyle>
        <scale>1</scale>
      </LabelStyle>
      <BalloonStyle>
        <text><![CDATA[<h3>$[name]</h3>]]></text>
      </BalloonStyle>
    </Style>
    <StyleMap id="icon-1892-0F9D58-nodesc">
      <Pair>
        <key>normal</key>
        <styleUrl>#icon-1892-0F9D58-nodesc-normal</styleUrl>
      </Pair>
      <Pair>
        <key>highlight</key>
        <styleUrl>#icon-1892-0F9D58-nodesc-highlight</styleUrl>
      </Pair>
    </StyleMap>
    <Folder>
      <name>瀑布</name>
      <Placemark>
        <name>雙龍石澗龍尾朝天</name>
        <styleUrl>#icon-1892-0F9D58-nodesc</styleUrl>
        <Point>
          <coordinates>
            113.971868,22.259392,0
          </coordinates>
        </Point>
      </Placemark>
      <Placemark>
        <name>銀龍石澗銀礦瀑布</name>
        <styleUrl>#icon-1892-0F9D58-nodesc</styleUrl>
        <Point>
          <coordinates>
            113.991553,22.27379,0
          </coordinates>
        </Point>
      </Placemark>
      <Placemark>
        <name>小赤沙溪日出康城瀑布</name>
        <styleUrl>#icon-1892-0F9D58-nodesc</styleUrl>
        <Point>
          <coordinates>
            114.274572,22.301105,0
          </coordinates>
        </Point>
      </Placemark>
      <Placemark>
        <name>屏嘉石澗石板潭</name>
        <styleUrl>#icon-1892-0F9D58-nodesc</styleUrl>
        <Point>
          <coordinates>
            114.210701,22.514984,0
          </coordinates>
        </Point>
      </Placemark>
      <Placemark>
        <name>銀龍石澗銀龍瀑布</name>
        <styleUrl>#icon-1892-0F9D58-nodesc</styleUrl>
        <Point>
          <coordinates>
            113.988343,22.276265,0
          </coordinates>
        </Point>
      </Placemark>
      <Placemark>
        <name>大埔尾坑鹿山飛瀑</name>
        <styleUrl>#icon-1892-0F9D58-nodesc</styleUrl>
        <Point>
          <coordinates>
            114.19532,22.420275,0
          </coordinates>
        </Point>
      </Placemark>
      <Placemark>
        <name>瀑布灣瀑</name>
        <styleUrl>#icon-1892-0F9D58-nodesc</styleUrl>
        <Point>
          <coordinates>
            114.133275,22.252647,0
          </coordinates>
        </Point>
      </Placemark>
      <Placemark>
        <name>屏南石澗草裙瀑</name>
        <styleUrl>#icon-1892-0F9D58-nodesc</styleUrl>
        <Point>
          <coordinates>
            114.205948,22.510983,0
          </coordinates>
        </Point>
      </Placemark>
      <Placemark>
        <name>水澇漕石澗四疊潭</name>
        <styleUrl>#icon-1892-0F9D58-nodesc</styleUrl>
        <Point>
          <coordinates>
            113.853771,22.232138,0
          </coordinates>
        </Point>
      </Placemark>
      <Placemark>
        <name>青龍石澗青龍瀑</name>
        <styleUrl>#icon-1892-0F9D58-nodesc</styleUrl>
        <Point>
          <coordinates>
            113.964666,22.242152,0
          </coordinates>
        </Point>
      </Placemark>
      <Placemark>
        <name>牙鷹北坑鷹泊崖</name>
        <styleUrl>#icon-1892-0F9D58-nodesc</styleUrl>
        <Point>
          <coordinates>
            113.860928,22.243165,0
          </coordinates>
        </Point>
      </Placemark>
      <Placemark>
        <name>大坪坑右源大坪坑尾瀑</name>
        <styleUrl>#icon-1892-0F9D58-nodesc</styleUrl>
        <Point>
          <coordinates>
            113.853401,22.217861,0
          </coordinates>
        </Point>
      </Placemark>
      <Placemark>
        <name>彌散石澗十三層連瀑</name>
        <styleUrl>#icon-1892-0F9D58-nodesc</styleUrl>
        <Point>
          <coordinates>
            113.913817,22.279516,0
          </coordinates>
        </Point>
      </Placemark>
      <Placemark>
        <name>九肚坑無名瀑布</name>
        <styleUrl>#icon-1892-0F9D58-nodesc</styleUrl>
        <Point>
          <coordinates>
            114.21036,22.41079,0
          </coordinates>
        </Point>
      </Placemark>
      <Placemark>
        <name>蝴蝶谷坑無名瀑布</name>
        <styleUrl>#icon-1892-0F9D58-nodesc</styleUrl>
        <Point>
          <coordinates>
            114.143805,22.344375,0
          </coordinates>
        </Point>
      </Placemark>
      <Placemark>
        <name>小馬坑無名瀑布</name>
        <styleUrl>#icon-1892-0F9D58-nodesc</styleUrl>
        <Point>
          <coordinates>
            114.203096,22.282502,0
          </coordinates>
        </Point>
      </Placemark>
      <Placemark>
        <name>虎白石澗無名石澗</name>
        <styleUrl>#icon-1892-0F9D58-nodesc</styleUrl>
        <Point>
          <coordinates>
            114.010039,22.292802,0
          </coordinates>
        </Point>
      </Placemark>
      <Placemark>
        <name>烏洲塘東坑無名瀑布</name>
        <styleUrl>#icon-1892-0F9D58-nodesc</styleUrl>
        <Point>
          <coordinates>
            114.305262,22.494909,0
          </coordinates>
        </Point>
      </Placemark>
      <Placemark>
        <name>花籃坑烏洲瀑</name>
        <styleUrl>#icon-1892-0F9D58-nodesc</styleUrl>
        <Point>
          <coordinates>
            114.303085,22.497916,0
          </coordinates>
        </Point>
      </Placemark>
      <Placemark>
        <name>花籃坑花籃瀑</name>
        <styleUrl>#icon-1892-0F9D58-nodesc</styleUrl>
        <Point>
          <coordinates>
            114.302718,22.498111,0
          </coordinates>
        </Point>
      </Placemark>
      <Placemark>
        <name>牛角涌無名瀑布</name>
        <styleUrl>#icon-1892-0F9D58-nodesc</styleUrl>
        <Point>
          <coordinates>
            114.292166,22.501376,0
          </coordinates>
        </Point>
      </Placemark>
      <Placemark>
        <name>馬尿河無名瀑布</name>
        <styleUrl>#icon-1892-0F9D58-nodesc</styleUrl>
        <Point>
          <coordinates>
            114.278368,22.508443,0
          </coordinates>
        </Point>
      </Placemark>
      <Placemark>
        <name>屏嘉石澗無名瀑布</name>
        <styleUrl>#icon-1892-0F9D58-nodesc</styleUrl>
        <Point>
          <coordinates>
            114.211,22.514713,0
          </coordinates>
        </Point>
      </Placemark>
      <Placemark>
        <name>四肚坑四肚飛瀑</name>
        <styleUrl>#icon-1892-0F9D58-nodesc</styleUrl>
        <Point>
          <coordinates>
            114.240022,22.524323,0
          </coordinates>
        </Point>
      </Placemark>
      <Placemark>
        <name>担水坑右源無名瀑布</name>
        <styleUrl>#icon-1892-0F9D58-nodesc</styleUrl>
        <Point>
          <coordinates>
            114.214493,22.55069,0
          </coordinates>
        </Point>
      </Placemark>
      <Placemark>
        <name>担水坑左源無名瀑布01</name>
        <styleUrl>#icon-1892-0F9D58-nodesc</styleUrl>
        <Point>
          <coordinates>
            114.210743,22.54814,0
          </coordinates>
        </Point>
      </Placemark>
      <Placemark>
        <name>担水坑左源無名瀑布02</name>
        <styleUrl>#icon-1892-0F9D58-nodesc</styleUrl>
        <Point>
          <coordinates>
            114.210991,22.547989,0
          </coordinates>
        </Point>
      </Placemark>
      <Placemark>
        <name>亞公頂北坑無名瀑布</name>
        <styleUrl>#icon-1892-0F9D58-nodesc</styleUrl>
        <Point>
          <coordinates>
            114.202733,22.553019,0
          </coordinates>
        </Point>
      </Placemark>
      <Placemark>
        <name>大朗坑無名瀑布</name>
        <styleUrl>#icon-1892-0F9D58-nodesc</styleUrl>
        <Point>
          <coordinates>
            114.194594,22.536452,0
          </coordinates>
        </Point>
      </Placemark>
      <Placemark>
        <name>崇山石澗崇山飛瀑</name>
        <styleUrl>#icon-1892-0F9D58-nodesc</styleUrl>
        <Point>
          <coordinates>
            114.043416,22.418218,0
          </coordinates>
        </Point>
      </Placemark>
      <Placemark>
        <name>上乾下左源無名瀑布</name>
        <styleUrl>#icon-1892-0F9D58-nodesc</styleUrl>
        <Point>
          <coordinates>
            113.949747,22.417545,0
          </coordinates>
        </Point>
      </Placemark>
      <Placemark>
        <name>太墩南坑無名瀑布</name>
        <styleUrl>#icon-1892-0F9D58-nodesc</styleUrl>
        <Point>
          <coordinates>
            114.314461,22.39646,0
          </coordinates>
        </Point>
      </Placemark>
      <Placemark>
        <name>白水碗瀑布</name>
        <styleUrl>#icon-1892-0F9D58-nodesc</styleUrl>
        <Point>
          <coordinates>
            114.261865,22.339904,0
          </coordinates>
        </Point>
      </Placemark>
      <Placemark>
        <name>鬼氹右澗東龍飛瀑</name>
        <styleUrl>#icon-1892-0F9D58-nodesc</styleUrl>
        <Point>
          <coordinates>
            114.292037,22.243222,0
          </coordinates>
        </Point>
      </Placemark>
      <Placemark>
        <name>芽菜坑無名瀑布</name>
        <styleUrl>#icon-1892-0F9D58-nodesc</styleUrl>
        <Point>
          <coordinates>
            114.248669,22.207447,0
          </coordinates>
        </Point>
      </Placemark>
      <Placemark>
        <name>流白水</name>
        <styleUrl>#icon-1892-0F9D58-nodesc</styleUrl>
        <Point>
          <coordinates>
            114.382312,22.391313,0
          </coordinates>
        </Point>
      </Placemark>
      <Placemark>
        <name>雙龍石澗無名瀑布01</name>
        <styleUrl>#icon-1892-0F9D58-nodesc</styleUrl>
        <Point>
          <coordinates>
            113.974733,22.256087,0
          </coordinates>
        </Point>
      </Placemark>
      <Placemark>
        <name>雙龍石澗無名瀑布02</name>
        <styleUrl>#icon-1892-0F9D58-nodesc</styleUrl>
        <Point>
          <coordinates>
            113.974363,22.256443,0
          </coordinates>
        </Point>
      </Placemark>
      <Placemark>
        <name>蒼龍右源金無名瀑布</name>
        <styleUrl>#icon-1892-0F9D58-nodesc</styleUrl>
        <Point>
          <coordinates>
            113.974881,22.264436,0
          </coordinates>
        </Point>
      </Placemark>
      <Placemark>
        <name>蓮龍石澗無名瀑布01</name>
        <styleUrl>#icon-1892-0F9D58-nodesc</styleUrl>
        <Point>
          <coordinates>
            113.975655,22.267086,0
          </coordinates>
        </Point>
      </Placemark>
      <Placemark>
        <name>蓮龍石澗無名瀑布02</name>
        <styleUrl>#icon-1892-0F9D58-nodesc</styleUrl>
        <Point>
          <coordinates>
            113.976932,22.267204,0
          </coordinates>
        </Point>
      </Placemark>
      <Placemark>
        <name>銀龍石澗無名瀑布01</name>
        <styleUrl>#icon-1892-0F9D58-nodesc</styleUrl>
        <Point>
          <coordinates>
            113.988186,22.27711,0
          </coordinates>
        </Point>
      </Placemark>
      <Placemark>
        <name>銀龍石澗無名瀑布02</name>
        <styleUrl>#icon-1892-0F9D58-nodesc</styleUrl>
        <Point>
          <coordinates>
            113.988327,22.276901,0
          </coordinates>
        </Point>
      </Placemark>
      <Placemark>
        <name>銀龍石澗無名瀑布03</name>
        <styleUrl>#icon-1892-0F9D58-nodesc</styleUrl>
        <Point>
          <coordinates>
            113.988353,22.276708,0
          </coordinates>
        </Point>
      </Placemark>
      <Placemark>
        <name>田寮坑無名瀑布01</name>
        <styleUrl>#icon-1892-0F9D58-nodesc</styleUrl>
        <Point>
          <coordinates>
            113.9884,22.287833,0
          </coordinates>
        </Point>
      </Placemark>
      <Placemark>
        <name>田寮坑無名瀑布02</name>
        <styleUrl>#icon-1892-0F9D58-nodesc</styleUrl>
        <Point>
          <coordinates>
            113.982178,22.288022,0
          </coordinates>
        </Point>
      </Placemark>
      <Placemark>
        <name>田寮坑右源無名瀑布</name>
        <styleUrl>#icon-1892-0F9D58-nodesc</styleUrl>
        <Point>
          <coordinates>
            113.988532,22.285946,0
          </coordinates>
        </Point>
      </Placemark>
      <Placemark>
        <name>龍尾坑無名瀑布</name>
        <styleUrl>#icon-1892-0F9D58-nodesc</styleUrl>
        <Point>
          <coordinates>
            113.977874,22.272577,0
          </coordinates>
        </Point>
      </Placemark>
      <Placemark>
        <name>狗虱坑無名瀑布</name>
        <styleUrl>#icon-1892-0F9D58-nodesc</styleUrl>
        <Point>
          <coordinates>
            114.015491,22.274164,0
          </coordinates>
        </Point>
      </Placemark>
      <Placemark>
        <name>神樂院左坑無名瀑布</name>
        <styleUrl>#icon-1892-0F9D58-nodesc</styleUrl>
        <Point>
          <coordinates>
            114.019885,22.276255,0
          </coordinates>
        </Point>
      </Placemark>
      <Placemark>
        <name>水澇漕石澗無名瀑布01</name>
        <styleUrl>#icon-1892-0F9D58-nodesc</styleUrl>
        <Point>
          <coordinates>
            113.853991,22.231964,0
          </coordinates>
        </Point>
      </Placemark>
      <Placemark>
        <name>水澇漕石澗無名瀑布02</name>
        <styleUrl>#icon-1892-0F9D58-nodesc</styleUrl>
        <Point>
          <coordinates>
            113.854172,22.231866,0
          </coordinates>
        </Point>
      </Placemark>
      <Placemark>
        <name>企角坑無名瀑布</name>
        <styleUrl>#icon-1892-0F9D58-nodesc</styleUrl>
        <Point>
          <coordinates>
            113.960423,22.295181,0
          </coordinates>
        </Point>
      </Placemark>
      <Placemark>
        <name>青大石澗無名瀑布01</name>
        <styleUrl>#icon-1892-0F9D58-nodesc</styleUrl>
        <Point>
          <coordinates>
            113.942627,22.404218,0
          </coordinates>
        </Point>
      </Placemark>
      <Placemark>
        <name>青大石澗無名瀑布02</name>
        <styleUrl>#icon-1892-0F9D58-nodesc</styleUrl>
        <Point>
          <coordinates>
            113.942709,22.404988,0
          </coordinates>
        </Point>
      </Placemark>
      <Placemark>
        <name>青大石澗無名瀑布03</name>
        <styleUrl>#icon-1892-0F9D58-nodesc</styleUrl>
        <Point>
          <coordinates>
            113.942688,22.405997,0
          </coordinates>
        </Point>
      </Placemark>
      <Placemark>
        <name>凌風石澗無名瀑布</name>
        <styleUrl>#icon-1892-0F9D58-nodesc</styleUrl>
        <Point>
          <coordinates>
            113.872701,22.241945,0
          </coordinates>
        </Point>
      </Placemark>
      <Placemark>
        <name>田字坑無名瀑布</name>
        <styleUrl>#icon-1892-0F9D58-nodesc</styleUrl>
        <Point>
          <coordinates>
            113.98702,22.297235,0
          </coordinates>
        </Point>
      </Placemark>
      <Placemark>
        <name>靈鰲石澗無名瀑布</name>
        <styleUrl>#icon-1892-0F9D58-nodesc</styleUrl>
        <Point>
          <coordinates>
            113.9702,22.440586,0
          </coordinates>
        </Point>
      </Placemark>
      <Placemark>
        <name>西高山北坑龍虎山瀑布</name>
        <styleUrl>#icon-1892-0F9D58-nodesc</styleUrl>
        <Point>
          <coordinates>
            114.132703,22.276228,0
          </coordinates>
        </Point>
      </Placemark>
      <Placemark>
        <name>西高山北坑無名瀑布</name>
        <styleUrl>#icon-1892-0F9D58-nodesc</styleUrl>
        <Point>
          <coordinates>
            114.133499,22.275941,0
          </coordinates>
        </Point>
      </Placemark>
      <Placemark>
        <name>西高山北坑主瀑</name>
        <styleUrl>#icon-1892-0F9D58-nodesc</styleUrl>
        <Point>
          <coordinates>
            114.133797,22.275884,0
          </coordinates>
        </Point>
      </Placemark>
      <Placemark>
        <name>友愛坑左源友愛飛瀑</name>
        <styleUrl>#icon-1892-0288D1-nodesc</styleUrl>
        <Point>
          <coordinates>
            114.175662,22.388535,0
          </coordinates>
        </Point>
      </Placemark>
      <Placemark>
        <name>隱龍右澗飛花瀑</name>
        <styleUrl>#icon-1892-0288D1-nodesc</styleUrl>
        <Point>
          <coordinates>
            114.278875,22.41471,0
          </coordinates>
        </Point>
      </Placemark>
      <Placemark>
        <name>青龍石澗雙獅觀瀑</name>
        <styleUrl>#icon-1892-0288D1-nodesc</styleUrl>
        <Point>
          <coordinates>
            113.96208,22.251487,0
          </coordinates>
        </Point>
      </Placemark>
      <Placemark>
        <name>左龍石澗左龍瀑</name>
        <styleUrl>#icon-1892-0288D1-nodesc</styleUrl>
        <Point>
          <coordinates>
            113.960886,22.267661,0
          </coordinates>
        </Point>
      </Placemark>
      <Placemark>
        <name>黃龍石澗龍尾瀑</name>
        <styleUrl>#icon-1892-0288D1-nodesc</styleUrl>
        <Point>
          <coordinates>
            113.961947,22.266737,0
          </coordinates>
        </Point>
      </Placemark>
      <Placemark>
        <name>黃龍石澗右龍瀑</name>
        <styleUrl>#icon-1892-0288D1-nodesc</styleUrl>
        <Point>
          <coordinates>
            113.961448,22.266924,0
          </coordinates>
        </Point>
      </Placemark>
      <Placemark>
        <name>龍嚎石澗龍嘯瀑</name>
        <styleUrl>#icon-1892-0288D1-nodesc</styleUrl>
        <Point>
          <coordinates>
            113.966485,22.267388,0
          </coordinates>
        </Point>
      </Placemark>
      <Placemark>
        <name>臥龍石澗絕龍谷</name>
        <styleUrl>#icon-1892-0288D1-nodesc</styleUrl>
        <Point>
          <coordinates>
            113.96273,22.275236,0
          </coordinates>
        </Point>
      </Placemark>
      <Placemark>
        <name>龍顎石澗龍顎主瀑</name>
        <styleUrl>#icon-1892-0288D1-nodesc</styleUrl>
        <Point>
          <coordinates>
            113.962408,22.272066,0
          </coordinates>
        </Point>
      </Placemark>
      <Placemark>
        <name>東龍石澗鷹領瀑</name>
        <styleUrl>#icon-1892-0288D1-nodesc</styleUrl>
        <Point>
          <coordinates>
            113.949176,22.265565,0
          </coordinates>
        </Point>
      </Placemark>
      <Placemark>
        <name>東龍石澗伏虎潭一線瀑</name>
        <styleUrl>#icon-1892-0288D1-nodesc</styleUrl>
        <Point>
          <coordinates>
            113.948643,22.265942,0
          </coordinates>
        </Point>
      </Placemark>
      <Placemark>
        <name>藏天瀑</name>
        <styleUrl>#icon-1892-0288D1-nodesc</styleUrl>
        <Point>
          <coordinates>
            113.955704,22.26027,0
          </coordinates>
        </Point>
      </Placemark>
      <Placemark>
        <name>梧桐石澗主瀑</name>
        <styleUrl>#icon-1892-0288D1-nodesc</styleUrl>
        <Point>
          <coordinates>
            114.131695,22.424048,0
          </coordinates>
        </Point>
      </Placemark>
      <Placemark>
        <name>梧桐石澗井底瀑</name>
        <styleUrl>#icon-1892-0288D1-nodesc</styleUrl>
        <Point>
          <coordinates>
            114.131875,22.427185,0
          </coordinates>
        </Point>
      </Placemark>
      <Placemark>
        <name>梧桐石澗中瀑</name>
        <styleUrl>#icon-1892-0288D1-nodesc</styleUrl>
        <Point>
          <coordinates>
            114.131751,22.426579,0
          </coordinates>
        </Point>
      </Placemark>
      <Placemark>
        <name>梧桐石澗散髮瀑</name>
        <styleUrl>#icon-1892-0288D1-nodesc</styleUrl>
        <Point>
          <coordinates>
            114.131536,22.423659,0
          </coordinates>
        </Point>
      </Placemark>
      <Placemark>
        <name>梧桐石澗馬尾瀑</name>
        <styleUrl>#icon-1892-0288D1-nodesc</styleUrl>
        <Point>
          <coordinates>
            114.131888,22.427298,0
          </coordinates>
        </Point>
      </Placemark>
      <Placemark>
        <name>梧桐石澗彩虹瀑</name>
        <styleUrl>#icon-1892-0288D1-nodesc</styleUrl>
        <Point>
          <coordinates>
            114.131568,22.424569,0
          </coordinates>
        </Point>
      </Placemark>
      <Placemark>
        <name>梧桐石澗玉女瀑</name>
        <styleUrl>#icon-1892-0288D1-nodesc</styleUrl>
        <Point>
          <coordinates>
            114.130891,22.422961,0
          </coordinates>
        </Point>
      </Placemark>
      <Placemark>
        <name>橫涌石澗橫瀑</name>
        <styleUrl>#icon-1892-0288D1-nodesc</styleUrl>
        <Point>
          <coordinates>
            114.236103,22.496809,0
          </coordinates>
        </Point>
      </Placemark>
      <Placemark>
        <name>橫涌石澗三角瀑</name>
        <styleUrl>#icon-1892-0288D1-nodesc</styleUrl>
        <Point>
          <coordinates>
            114.238308,22.498503,0
          </coordinates>
        </Point>
      </Placemark>
      <Placemark>
        <name>橫涌石澗雙瀑潭</name>
        <styleUrl>#icon-1892-0288D1-nodesc</styleUrl>
        <Point>
          <coordinates>
            114.233127,22.496665,0
          </coordinates>
        </Point>
      </Placemark>
      <Placemark>
        <name>橫涌石澗繞絲溪</name>
        <styleUrl>#icon-1892-0288D1-nodesc</styleUrl>
        <Point>
          <coordinates>
            114.234746,22.495714,0
          </coordinates>
        </Point>
      </Placemark>
      <Placemark>
        <name>橫涌石澗龍珠瀑</name>
        <styleUrl>#icon-1892-0288D1-nodesc</styleUrl>
        <Point>
          <coordinates>
            114.237449,22.49744,0
          </coordinates>
        </Point>
      </Placemark>
      <Placemark>
        <name>新娘潭瀑布</name>
        <styleUrl>#icon-1892-0288D1-nodesc</styleUrl>
        <Point>
          <coordinates>
            114.236941,22.503284,0
          </coordinates>
        </Point>
      </Placemark>
      <Placemark>
        <name>照鏡潭瀑布</name>
        <styleUrl>#icon-1892-0288D1-nodesc</styleUrl>
        <Point>
          <coordinates>
            114.241603,22.504329,0
          </coordinates>
        </Point>
      </Placemark>
      <Placemark>
        <name>大曹石澗大帽山瀑布</name>
        <styleUrl>#icon-1892-0288D1-nodesc</styleUrl>
        <Point>
          <coordinates>
            114.119147,22.407611,0
          </coordinates>
        </Point>
      </Placemark>
      <Placemark>
        <name>潭崗石澗潭崗飛瀑</name>
        <styleUrl>#icon-1892-0288D1-nodesc</styleUrl>
        <Point>
          <coordinates>
            114.21768,22.251881,0
          </coordinates>
        </Point>
      </Placemark>
      <Placemark>
        <name>將軍澳石澗小夏威夷瀑布</name>
        <styleUrl>#icon-1892-0288D1-nodesc</styleUrl>
        <Point>
          <coordinates>
            114.246683,22.33126,0
          </coordinates>
        </Point>
      </Placemark>
      <Placemark>
        <name>將軍澳石澗蓮苑臺瀑布</name>
        <styleUrl>#icon-1892-0288D1-nodesc</styleUrl>
        <Point>
          <coordinates>
            114.24759,22.330918,0
          </coordinates>
        </Point>
      </Placemark>
      <Placemark>
        <name>馬大石澗英雄瀑</name>
        <styleUrl>#icon-1892-0288D1-nodesc</styleUrl>
        <Point>
          <coordinates>
            114.232245,22.405538,0
          </coordinates>
        </Point>
      </Placemark>
      <Placemark>
        <name>盧吉飛瀑</name>
        <styleUrl>#icon-1892-0288D1-nodesc</styleUrl>
        <Point>
          <coordinates>
            114.147058,22.271743,0
          </coordinates>
        </Point>
      </Placemark>
      <Placemark>
        <name>雙鹿石澗一線天</name>
        <styleUrl>#icon-1892-0288D1-nodesc</styleUrl>
        <Point>
          <coordinates>
            114.352898,22.404723,0
          </coordinates>
        </Point>
      </Placemark>
      <Placemark>
        <name>雙鹿石澗千絲瀑</name>
        <styleUrl>#icon-1892-0288D1-nodesc</styleUrl>
        <Point>
          <coordinates>
            114.361141,22.40173,0
          </coordinates>
        </Point>
      </Placemark>
      <Placemark>
        <name>雙鹿石澗鳴幽瀑</name>
        <styleUrl>#icon-1892-0288D1-nodesc</styleUrl>
        <Point>
          <coordinates>
            114.358134,22.402092,0
          </coordinates>
        </Point>
      </Placemark>
      <Placemark>
        <name>雙鹿石澗四疊潭</name>
        <styleUrl>#icon-1892-0288D1-nodesc</styleUrl>
        <Point>
          <coordinates>
            114.366822,22.402564,0
          </coordinates>
        </Point>
      </Placemark>
      <Placemark>
        <name>城門峽瀑布</name>
        <styleUrl>#icon-1892-0288D1-nodesc</styleUrl>
        <Point>
          <coordinates>
            114.149891,22.375849,0
          </coordinates>
        </Point>
      </Placemark>
      <Placemark>
        <name>大圓左澗左源迎山谷</name>
        <styleUrl>#icon-1892-0288D1-nodesc</styleUrl>
        <Point>
          <coordinates>
            114.119849,22.399782,0
          </coordinates>
        </Point>
      </Placemark>
      <Placemark>
        <name>大曹石澗小九寨溝</name>
        <styleUrl>#icon-1892-0288D1-nodesc</styleUrl>
        <Point>
          <coordinates>
            114.114763,22.405656,0
          </coordinates>
        </Point>
      </Placemark>
      <Placemark>
        <name>曹公潭瀑布</name>
        <styleUrl>#icon-1892-0288D1-nodesc</styleUrl>
        <Point>
          <coordinates>
            114.10589,22.381553,0
          </coordinates>
        </Point>
      </Placemark>
      <Placemark>
        <name>大雷石澗主瀑</name>
        <styleUrl>#icon-1892-0288D1-nodesc</styleUrl>
        <Point>
          <coordinates>
            114.116296,22.41767,0
          </coordinates>
        </Point>
      </Placemark>
      <Placemark>
        <name>大圓石澗銀花潭</name>
        <styleUrl>#icon-1892-0288D1-nodesc</styleUrl>
        <Point>
          <coordinates>
            114.123449,22.396967,0
          </coordinates>
        </Point>
      </Placemark>
      <Placemark>
        <name>大圓石澗九龍吐珠</name>
        <styleUrl>#icon-1892-0288D1-nodesc</styleUrl>
        <Point>
          <coordinates>
            114.123783,22.397199,0
          </coordinates>
        </Point>
      </Placemark>
      <Placemark>
        <name>大圓石澗長槽瀑</name>
        <styleUrl>#icon-1892-0288D1-nodesc</styleUrl>
        <Point>
          <coordinates>
            114.124062,22.397357,0
          </coordinates>
        </Point>
      </Placemark>
      <Placemark>
        <name>大圓石澗飛猿峽</name>
        <styleUrl>#icon-1892-0288D1-nodesc</styleUrl>
        <Point>
          <coordinates>
            114.12502,22.398741,0
          </coordinates>
        </Point>
      </Placemark>
      <Placemark>
        <name>大圓右澗一線瀑</name>
        <styleUrl>#icon-1892-0288D1-nodesc</styleUrl>
        <Point>
          <coordinates>
            114.12692,22.394219,0
          </coordinates>
        </Point>
      </Placemark>
      <Placemark>
        <name>雙鹿石澗奔槽瀑</name>
        <styleUrl>#icon-1892-0288D1-nodesc</styleUrl>
        <Point>
          <coordinates>
            114.351282,22.40502,0
          </coordinates>
        </Point>
      </Placemark>
      <Placemark>
        <name>雙鹿石澗井底瀑</name>
        <styleUrl>#icon-1892-0288D1-nodesc</styleUrl>
        <Point>
          <coordinates>
            114.351959,22.404886,0
          </coordinates>
        </Point>
      </Placemark>
      <Placemark>
        <name>雙鹿石澗藏幽瀑</name>
        <styleUrl>#icon-1892-0288D1-nodesc</styleUrl>
        <Point>
          <coordinates>
            114.35422,22.404633,0
          </coordinates>
        </Point>
      </Placemark>
      <Placemark>
        <name>秋楓石澗碧扇瀑</name>
        <styleUrl>#icon-1892-0288D1-nodesc</styleUrl>
        <Point>
          <coordinates>
            114.328973,22.408296,0
          </coordinates>
        </Point>
      </Placemark>
      <Placemark>
        <name>秋楓石澗一線瀑</name>
        <styleUrl>#icon-1892-0288D1-nodesc</styleUrl>
        <Point>
          <coordinates>
            114.332953,22.409255,0
          </coordinates>
        </Point>
      </Placemark>
      <Placemark>
        <name>嘉道理農場近彩虹徑無名瀑布</name>
        <styleUrl>#icon-1892-0288D1-nodesc</styleUrl>
        <Point>
          <coordinates>
            114.120374,22.430009,0
          </coordinates>
        </Point>
      </Placemark>
      <Placemark>
        <name>蝴蝶坑蝴蝶瀑</name>
        <styleUrl>#icon-1892-0288D1-nodesc</styleUrl>
        <Point>
          <coordinates>
            114.072674,22.382663,0
          </coordinates>
        </Point>
      </Placemark>
      <Placemark>
        <name>石龍坑石室瀑</name>
        <styleUrl>#icon-1892-0288D1-nodesc</styleUrl>
        <Point>
          <coordinates>
            114.074533,22.375143,0
          </coordinates>
        </Point>
      </Placemark>
      <Placemark>
        <name>石龍坑石龍飛瀑</name>
        <styleUrl>#icon-1892-0288D1-nodesc</styleUrl>
        <Point>
          <coordinates>
            114.075851,22.375539,0
          </coordinates>
        </Point>
      </Placemark>
      <Placemark>
        <name>鹿湖北坑兩源交匯處</name>
        <styleUrl>#icon-1892-0288D1-nodesc</styleUrl>
        <Point>
          <coordinates>
            114.3542,22.413673,0
          </coordinates>
        </Point>
      </Placemark>
      <Placemark>
        <name>狗嶺涌石澗狗嶺涌瀑布</name>
        <styleUrl>#icon-1892-0288D1-nodesc</styleUrl>
        <Point>
          <coordinates>
            113.86073,22.212266,0
          </coordinates>
        </Point>
      </Placemark>
      <Placemark>
        <name>昂深石澗彌昂飛瀑</name>
        <styleUrl>#icon-1892-0288D1-nodesc</styleUrl>
        <Point>
          <coordinates>
            113.897296,22.260842,0
          </coordinates>
        </Point>
      </Placemark>
      <Placemark>
        <name>北天門石澗北天門尾瀑</name>
        <styleUrl>#icon-1892-0288D1-nodesc</styleUrl>
        <Point>
          <coordinates>
            113.921132,22.250738,0
          </coordinates>
        </Point>
      </Placemark>
      <Placemark>
        <name>南天門石澗南天門尾瀑</name>
        <styleUrl>#icon-1892-0288D1-nodesc</styleUrl>
        <Point>
          <coordinates>
            113.925823,22.248151,0
          </coordinates>
        </Point>
      </Placemark>
      <Placemark>
        <name>彌東坑彌東飛瀑</name>
        <styleUrl>#icon-1892-0288D1-nodesc</styleUrl>
        <Point>
          <coordinates>
            113.917749,22.259353,0
          </coordinates>
        </Point>
      </Placemark>
      <Placemark>
        <name>鳳彌石澗心碎瀑</name>
        <styleUrl>#icon-1892-0288D1-nodesc</styleUrl>
        <Point>
          <coordinates>
            113.921086,22.261023,0
          </coordinates>
        </Point>
      </Placemark>
      <Placemark>
        <name>黃龍石澗黃龍瀑</name>
        <styleUrl>#icon-1892-0288D1-nodesc</styleUrl>
        <Point>
          <coordinates>
            113.958322,22.268107,0
          </coordinates>
        </Point>
      </Placemark>
      <Placemark>
        <name>藏龍石澗格仔瀑</name>
        <styleUrl>#icon-1892-0288D1-nodesc</styleUrl>
        <Point>
          <coordinates>
            113.956483,22.266167,0
          </coordinates>
        </Point>
      </Placemark>
      <Placemark>
        <name>藏龍左澗飛絮瀑</name>
        <styleUrl>#icon-1892-0288D1-nodesc</styleUrl>
        <Point>
          <coordinates>
            113.956943,22.265766,0
          </coordinates>
        </Point>
      </Placemark>
      <Placemark>
        <name>東馬肚坑撲樹崖</name>
        <styleUrl>#icon-1892-0288D1-nodesc</styleUrl>
        <Point>
          <coordinates>
            114.253661,22.415472,0
          </coordinates>
        </Point>
      </Placemark>
      <Placemark>
        <name>石水澗烏龜潭石墜下瀑</name>
        <styleUrl>#icon-1892-0288D1-nodesc</styleUrl>
        <Point>
          <coordinates>
            114.249941,22.496556,0
          </coordinates>
        </Point>
      </Placemark>
      <Placemark>
        <name>北龍石澗天書瀑（期間限定）</name>
        <styleUrl>#icon-1892-0288D1-nodesc</styleUrl>
        <Point>
          <coordinates>
            113.960037,22.280785,0
          </coordinates>
        </Point>
      </Placemark>
      <Placemark>
        <name>大城石澗無名瀑布</name>
        <styleUrl>#icon-1892-0288D1-nodesc</styleUrl>
        <Point>
          <coordinates>
            114.140317,22.405082,0
          </coordinates>
        </Point>
      </Placemark>
      <Placemark>
        <name>玉女溪無名瀑布</name>
        <styleUrl>#icon-1892-0288D1-nodesc</styleUrl>
        <Point>
          <coordinates>
            114.131038,22.421987,0
          </coordinates>
        </Point>
      </Placemark>
      <Placemark>
        <name>雞公頭東坑無名瀑布</name>
        <styleUrl>#icon-1892-0288D1-nodesc</styleUrl>
        <Point>
          <coordinates>
            114.130195,22.425034,0
          </coordinates>
        </Point>
      </Placemark>
      <Placemark>
        <name>梧桐石澗無名瀑布</name>
        <styleUrl>#icon-1892-0288D1-nodesc</styleUrl>
        <Point>
          <coordinates>
            114.131787,22.426239,0
          </coordinates>
        </Point>
      </Placemark>
      <Placemark>
        <name>雞公坑無名瀑布</name>
        <styleUrl>#icon-1892-0288D1-nodesc</styleUrl>
        <Point>
          <coordinates>
            114.127389,22.426034,0
          </coordinates>
        </Point>
      </Placemark>
      <Placemark>
        <name>蕉坑無名瀑布</name>
        <styleUrl>#icon-1892-0288D1-nodesc</styleUrl>
        <Point>
          <coordinates>
            114.138485,22.423762,0
          </coordinates>
        </Point>
      </Placemark>
      <Placemark>
        <name>觀石坑無名瀑布</name>
        <styleUrl>#icon-1892-0288D1-nodesc</styleUrl>
        <Point>
          <coordinates>
            114.11612,22.423364,0
          </coordinates>
        </Point>
      </Placemark>
      <Placemark>
        <name>大石左左無名瀑布</name>
        <styleUrl>#icon-1892-0288D1-nodesc</styleUrl>
        <Point>
          <coordinates>
            114.121107,22.421189,0
          </coordinates>
        </Point>
      </Placemark>
      <Placemark>
        <name>大石石澗無名瀑布</name>
        <styleUrl>#icon-1892-0288D1-nodesc</styleUrl>
        <Point>
          <coordinates>
            114.120185,22.420576,0
          </coordinates>
        </Point>
      </Placemark>
      <Placemark>
        <name>石水澗無名瀑布</name>
        <styleUrl>#icon-1892-0288D1-nodesc</styleUrl>
        <Point>
          <coordinates>
            114.249892,22.497116,0
          </coordinates>
        </Point>
      </Placemark>
      <Placemark>
        <name>犁橫石澗下右源無名瀑布</name>
        <styleUrl>#icon-1892-0288D1-nodesc</styleUrl>
        <Point>
          <coordinates>
            114.217868,22.495971,0
          </coordinates>
        </Point>
      </Placemark>
      <Placemark>
        <name>犁橫石澗右源無名瀑布01</name>
        <styleUrl>#icon-1892-0288D1-nodesc</styleUrl>
        <Point>
          <coordinates>
            114.218159,22.494166,0
          </coordinates>
        </Point>
      </Placemark>
      <Placemark>
        <name>犁橫石澗右源無名瀑布02</name>
        <styleUrl>#icon-1892-0288D1-nodesc</styleUrl>
        <Point>
          <coordinates>
            114.218444,22.494066,0
          </coordinates>
        </Point>
      </Placemark>
      <Placemark>
        <name>犁壁中坑無名瀑布</name>
        <styleUrl>#icon-1892-0288D1-nodesc</styleUrl>
        <Point>
          <coordinates>
            114.216307,22.485297,0
          </coordinates>
        </Point>
      </Placemark>
      <Placemark>
        <name>䃟頭角坑無名瀑布</name>
        <styleUrl>#icon-1892-0288D1-nodesc</styleUrl>
        <Point>
          <coordinates>
            114.206628,22.477971,0
          </coordinates>
        </Point>
      </Placemark>
      <Placemark>
        <name>洞梓坑無名瀑布01</name>
        <styleUrl>#icon-1892-0288D1-nodesc</styleUrl>
        <Point>
          <coordinates>
            114.199647,22.477099,0
          </coordinates>
        </Point>
      </Placemark>
      <Placemark>
        <name>洞梓坑無名瀑布02</name>
        <styleUrl>#icon-1892-0288D1-nodesc</styleUrl>
        <Point>
          <coordinates>
            114.199439,22.477186,0
          </coordinates>
        </Point>
      </Placemark>
      <Placemark>
        <name>洞梓坑無名瀑布03</name>
        <styleUrl>#icon-1892-0288D1-nodesc</styleUrl>
        <Point>
          <coordinates>
            114.200028,22.477122,0
          </coordinates>
        </Point>
      </Placemark>
      <Placemark>
        <name>指尖東南坑洞梓坑無名瀑布</name>
        <styleUrl>#icon-1892-0288D1-nodesc</styleUrl>
        <Point>
          <coordinates>
            114.189241,22.470552,0
          </coordinates>
        </Point>
      </Placemark>
      <Placemark>
        <name>黃嘉石澗石源無名瀑布01</name>
        <styleUrl>#icon-1892-0288D1-nodesc</styleUrl>
        <Point>
          <coordinates>
            114.208823,22.498421,0
          </coordinates>
        </Point>
      </Placemark>
      <Placemark>
        <name>黃嘉石澗石源無名瀑布02</name>
        <styleUrl>#icon-1892-0288D1-nodesc</styleUrl>
        <Point>
          <coordinates>
            114.208104,22.497541,0
          </coordinates>
        </Point>
      </Placemark>
      <Placemark>
        <name>丹竹坑無名瀑布</name>
        <styleUrl>#icon-1892-0288D1-nodesc</styleUrl>
        <Point>
          <coordinates>
            114.184292,22.512723,0
          </coordinates>
        </Point>
      </Placemark>
      <Placemark>
        <name>紅萬坑無名瀑布</name>
        <styleUrl>#icon-1892-0288D1-nodesc</styleUrl>
        <Point>
          <coordinates>
            114.187171,22.533158,0
          </coordinates>
        </Point>
      </Placemark>
      <Placemark>
        <name>白牛石坑無名瀑布01</name>
        <styleUrl>#icon-1892-0288D1-nodesc</styleUrl>
        <Point>
          <coordinates>
            114.119802,22.447012,0
          </coordinates>
        </Point>
      </Placemark>
      <Placemark>
        <name>白牛石坑無名瀑布02</name>
        <styleUrl>#icon-1892-0288D1-nodesc</styleUrl>
        <Point>
          <coordinates>
            114.120645,22.444593,0
          </coordinates>
        </Point>
      </Placemark>
      <Placemark>
        <name>橫台山坑無名瀑布</name>
        <styleUrl>#icon-1892-0288D1-nodesc</styleUrl>
        <Point>
          <coordinates>
            114.109451,22.440547,0
          </coordinates>
        </Point>
      </Placemark>
      <Placemark>
        <name>甲龍左澗無名瀑布01</name>
        <styleUrl>#icon-1892-0288D1-nodesc</styleUrl>
        <Point>
          <coordinates>
            114.112736,22.414393,0
          </coordinates>
        </Point>
      </Placemark>
      <Placemark>
        <name>甲龍左澗無名瀑布02</name>
        <styleUrl>#icon-1892-0288D1-nodesc</styleUrl>
        <Point>
          <coordinates>
            114.112899,22.41394,0
          </coordinates>
        </Point>
      </Placemark>
      <Placemark>
        <name>甲龍左澗無名瀑布03</name>
        <styleUrl>#icon-1892-0288D1-nodesc</styleUrl>
        <Point>
          <coordinates>
            114.113287,22.413462,0
          </coordinates>
        </Point>
      </Placemark>
      <Placemark>
        <name>甲龍左澗左支無名瀑布</name>
        <styleUrl>#icon-1892-0288D1-nodesc</styleUrl>
        <Point>
          <coordinates>
            114.113032,22.414001,0
          </coordinates>
        </Point>
      </Placemark>
      <Placemark>
        <name>大雷右澗右源無名瀑布01</name>
        <styleUrl>#icon-1892-0288D1-nodesc</styleUrl>
        <Point>
          <coordinates>
            114.117114,22.416174,0
          </coordinates>
        </Point>
      </Placemark>
      <Placemark>
        <name>大雷右澗右源無名瀑布02</name>
        <styleUrl>#icon-1892-0288D1-nodesc</styleUrl>
        <Point>
          <coordinates>
            114.118499,22.412509,0
          </coordinates>
        </Point>
      </Placemark>
      <Placemark>
        <name>楓葉潭左坑無名瀑布</name>
        <styleUrl>#icon-1892-0288D1-nodesc</styleUrl>
        <Point>
          <coordinates>
            114.138423,22.406564,0
          </coordinates>
        </Point>
      </Placemark>
      <Placemark>
        <name>相思坑無名瀑布01</name>
        <styleUrl>#icon-1892-0288D1-nodesc</styleUrl>
        <Point>
          <coordinates>
            114.126325,22.399906,0
          </coordinates>
        </Point>
      </Placemark>
      <Placemark>
        <name>相思坑無名瀑布02</name>
        <styleUrl>#icon-1892-0288D1-nodesc</styleUrl>
        <Point>
          <coordinates>
            114.125759,22.399196,0
          </coordinates>
        </Point>
      </Placemark>
      <Placemark>
        <name>相思坑無名瀑布03</name>
        <styleUrl>#icon-1892-0288D1-nodesc</styleUrl>
        <Point>
          <coordinates>
            114.125462,22.398751,0
          </coordinates>
        </Point>
      </Placemark>
      <Placemark>
        <name>大圓石澗無名瀑布</name>
        <styleUrl>#icon-1892-0288D1-nodesc</styleUrl>
        <Point>
          <coordinates>
            114.124184,22.397425,0
          </coordinates>
        </Point>
      </Placemark>
      <Placemark>
        <name>梨木樹坑無名瀑布01</name>
        <styleUrl>#icon-1892-0288D1-nodesc</styleUrl>
        <Point>
          <coordinates>
            114.133666,22.38861,0
          </coordinates>
        </Point>
      </Placemark>
      <Placemark>
        <name>梨木樹坑無名瀑布02</name>
        <styleUrl>#icon-1892-0288D1-nodesc</styleUrl>
        <Point>
          <coordinates>
            114.13345,22.387477,0
          </coordinates>
        </Point>
      </Placemark>
      <Placemark>
        <name>蝴蝶園坑無名瀑布01</name>
        <styleUrl>#icon-1892-0288D1-nodesc</styleUrl>
        <Point>
          <coordinates>
            114.144274,22.392108,0
          </coordinates>
        </Point>
      </Placemark>
      <Placemark>
        <name>蝴蝶園坑無名瀑布02</name>
        <styleUrl>#icon-1892-0288D1-nodesc</styleUrl>
        <Point>
          <coordinates>
            114.146712,22.389668,0
          </coordinates>
        </Point>
      </Placemark>
      <Placemark>
        <name>蝴蝶園坑無名瀑布03</name>
        <styleUrl>#icon-1892-0288D1-nodesc</styleUrl>
        <Point>
          <coordinates>
            114.146839,22.389613,0
          </coordinates>
        </Point>
      </Placemark>
      <Placemark>
        <name>石龍坑無名瀑布01</name>
        <styleUrl>#icon-1892-0288D1-nodesc</styleUrl>
        <Point>
          <coordinates>
            114.079058,22.378258,0
          </coordinates>
        </Point>
      </Placemark>
      <Placemark>
        <name>石龍坑無名瀑布02</name>
        <styleUrl>#icon-1892-0288D1-nodesc</styleUrl>
        <Point>
          <coordinates>
            114.074414,22.374122,0
          </coordinates>
        </Point>
      </Placemark>
      <Placemark>
        <name>蝴蝶坑無名瀑布01</name>
        <styleUrl>#icon-1892-0288D1-nodesc</styleUrl>
        <Point>
          <coordinates>
            114.075369,22.383461,0
          </coordinates>
        </Point>
      </Placemark>
      <Placemark>
        <name>蝴蝶坑無名瀑布02</name>
        <styleUrl>#icon-1892-0288D1-nodesc</styleUrl>
        <Point>
          <coordinates>
            114.075393,22.383383,0
          </coordinates>
        </Point>
      </Placemark>
      <Placemark>
        <name>蝴蝶坑無名瀑布03</name>
        <styleUrl>#icon-1892-0288D1-nodesc</styleUrl>
        <Point>
          <coordinates>
            114.073357,22.382608,0
          </coordinates>
        </Point>
      </Placemark>
      <Placemark>
        <name>鬼怒坑無名瀑布</name>
        <styleUrl>#icon-1892-0288D1-nodesc</styleUrl>
        <Point>
          <coordinates>
            114.060216,22.379776,0
          </coordinates>
        </Point>
      </Placemark>
      <Placemark>
        <name>蓮䲔坑無名瀑布01</name>
        <styleUrl>#icon-1892-0288D1-nodesc</styleUrl>
        <Point>
          <coordinates>
            114.072201,22.388724,0
          </coordinates>
        </Point>
      </Placemark>
      <Placemark>
        <name>蓮䲔坑無名瀑布02</name>
        <styleUrl>#icon-1892-0288D1-nodesc</styleUrl>
        <Point>
          <coordinates>
            114.082998,22.396435,0
          </coordinates>
        </Point>
      </Placemark>
      <Placemark>
        <name>蓮䲔坑無名瀑布03</name>
        <styleUrl>#icon-1892-0288D1-nodesc</styleUrl>
        <Point>
          <coordinates>
            114.086088,22.397216,0
          </coordinates>
        </Point>
      </Placemark>
      <Placemark>
        <name>蓮䲔坑無名瀑布04</name>
        <styleUrl>#icon-1892-0288D1-nodesc</styleUrl>
        <Point>
          <coordinates>
            114.08003,22.392985,0
          </coordinates>
        </Point>
      </Placemark>
      <Placemark>
        <name>蓮花石澗無名瀑布01</name>
        <styleUrl>#icon-1892-0288D1-nodesc</styleUrl>
        <Point>
          <coordinates>
            114.05992,22.38635,0
          </coordinates>
        </Point>
      </Placemark>
      <Placemark>
        <name>蓮花石澗無名瀑布02</name>
        <styleUrl>#icon-1892-0288D1-nodesc</styleUrl>
        <Point>
          <coordinates>
            114.059599,22.386336,0
          </coordinates>
        </Point>
      </Placemark>
      <Placemark>
        <name>河背右坑無名瀑布</name>
        <styleUrl>#icon-1892-0288D1-nodesc</styleUrl>
        <Point>
          <coordinates>
            114.065714,22.404571,0
          </coordinates>
        </Point>
      </Placemark>
      <Placemark>
        <name>九管左坑無名瀑布</name>
        <styleUrl>#icon-1892-0288D1-nodesc</styleUrl>
        <Point>
          <coordinates>
            113.997049,22.386047,0
          </coordinates>
        </Point>
      </Placemark>
      <Placemark>
        <name>吹筒坳坑無名瀑布</name>
        <styleUrl>#icon-1892-0288D1-nodesc</styleUrl>
        <Point>
          <coordinates>
            114.364373,22.391433,0
          </coordinates>
        </Point>
      </Placemark>
      <Placemark>
        <name>雙鹿石澗奔槽瀑</name>
        <styleUrl>#icon-1892-0288D1-nodesc</styleUrl>
        <Point>
          <coordinates>
            114.350468,22.404966,0
          </coordinates>
        </Point>
      </Placemark>
      <Placemark>
        <name>大蚊南坑左源無名瀑布</name>
        <styleUrl>#icon-1892-0288D1-nodesc</styleUrl>
        <Point>
          <coordinates>
            114.36294,22.409199,0
          </coordinates>
        </Point>
      </Placemark>
      <Placemark>
        <name>牌北中坑無名瀑布</name>
        <styleUrl>#icon-1892-0288D1-nodesc</styleUrl>
        <Point>
          <coordinates>
            114.353754,22.413092,0
          </coordinates>
        </Point>
      </Placemark>
      <Placemark>
        <name>牌北右坑無名瀑布</name>
        <styleUrl>#icon-1892-0288D1-nodesc</styleUrl>
        <Point>
          <coordinates>
            114.35352,22.413314,0
          </coordinates>
        </Point>
      </Placemark>
      <Placemark>
        <name>牛湖墩東坑左源無名瀑布</name>
        <styleUrl>#icon-1892-0288D1-nodesc</styleUrl>
        <Point>
          <coordinates>
            114.344589,22.417466,0
          </coordinates>
        </Point>
      </Placemark>
      <Placemark>
        <name>牌額西坑無名瀑布</name>
        <styleUrl>#icon-1892-0288D1-nodesc</styleUrl>
        <Point>
          <coordinates>
            114.336852,22.412964,0
          </coordinates>
        </Point>
      </Placemark>
      <Placemark>
        <name>秋楓石澗無名瀑布</name>
        <styleUrl>#icon-1892-0288D1-nodesc</styleUrl>
        <Point>
          <coordinates>
            114.328731,22.407918,0
          </coordinates>
        </Point>
      </Placemark>
      <Placemark>
        <name>雞榕中澗無名瀑布</name>
        <styleUrl>#icon-1892-0288D1-nodesc</styleUrl>
        <Point>
          <coordinates>
            114.296382,22.418054,0
          </coordinates>
        </Point>
      </Placemark>
      <Placemark>
        <name>雞石坑左源無名瀑布</name>
        <styleUrl>#icon-1892-0288D1-nodesc</styleUrl>
        <Point>
          <coordinates>
            114.289824,22.410633,0
          </coordinates>
        </Point>
      </Placemark>
      <Placemark>
        <name>馬甲崙坑無名瀑布</name>
        <styleUrl>#icon-1892-0288D1-nodesc</styleUrl>
        <Point>
          <coordinates>
            114.291891,22.421401,0
          </coordinates>
        </Point>
      </Placemark>
      <Placemark>
        <name>飛龍右源無名瀑布</name>
        <styleUrl>#icon-1892-0288D1-nodesc</styleUrl>
        <Point>
          <coordinates>
            114.286563,22.420269,0
          </coordinates>
        </Point>
      </Placemark>
      <Placemark>
        <name>飛龍無名瀑布01</name>
        <styleUrl>#icon-1892-0288D1-nodesc</styleUrl>
        <Point>
          <coordinates>
            114.28759,22.420342,0
          </coordinates>
        </Point>
      </Placemark>
      <Placemark>
        <name>飛龍無名瀑布02</name>
        <styleUrl>#icon-1892-0288D1-nodesc</styleUrl>
        <Point>
          <coordinates>
            114.287319,22.42061,0
          </coordinates>
        </Point>
      </Placemark>
      <Placemark>
        <name>飛鳳無名瀑布01</name>
        <styleUrl>#icon-1892-0288D1-nodesc</styleUrl>
        <Point>
          <coordinates>
            114.2844,22.418733,0
          </coordinates>
        </Point>
      </Placemark>
      <Placemark>
        <name>飛鳳無名瀑布02</name>
        <styleUrl>#icon-1892-0288D1-nodesc</styleUrl>
        <Point>
          <coordinates>
            114.284421,22.420061,0
          </coordinates>
        </Point>
      </Placemark>
      <Placemark>
        <name>小隱龍石澗無名瀑布</name>
        <styleUrl>#icon-1892-0288D1-nodesc</styleUrl>
        <Point>
          <coordinates>
            114.281622,22.41923,0
          </coordinates>
        </Point>
      </Placemark>
      <Placemark>
        <name>隱龍右源飛花瀑</name>
        <styleUrl>#icon-1892-0288D1-nodesc</styleUrl>
        <Point>
          <coordinates>
            114.279172,22.415238,0
          </coordinates>
        </Point>
      </Placemark>
      <Placemark>
        <name>長情坑無名瀑布</name>
        <styleUrl>#icon-1892-0288D1-nodesc</styleUrl>
        <Point>
          <coordinates>
            114.270407,22.410799,0
          </coordinates>
        </Point>
      </Placemark>
      <Placemark>
        <name>西徑左坑無名瀑布</name>
        <styleUrl>#icon-1892-0288D1-nodesc</styleUrl>
        <Point>
          <coordinates>
            114.266731,22.413934,0
          </coordinates>
        </Point>
      </Placemark>
      <Placemark>
        <name>西徑坑無名瀑布01</name>
        <styleUrl>#icon-1892-0288D1-nodesc</styleUrl>
        <Point>
          <coordinates>
            114.26396,22.414498,0
          </coordinates>
        </Point>
      </Placemark>
      <Placemark>
        <name>西徑坑無名瀑布02</name>
        <styleUrl>#icon-1892-0288D1-nodesc</styleUrl>
        <Point>
          <coordinates>
            114.262947,22.412544,0
          </coordinates>
        </Point>
      </Placemark>
      <Placemark>
        <name>東馬肚坑無名瀑布</name>
        <styleUrl>#icon-1892-0288D1-nodesc</styleUrl>
        <Point>
          <coordinates>
            114.253303,22.414682,0
          </coordinates>
        </Point>
      </Placemark>
      <Placemark>
        <name>東馬肚坑左源無名瀑布01</name>
        <styleUrl>#icon-1892-0288D1-nodesc</styleUrl>
        <Point>
          <coordinates>
            114.253161,22.414026,0
          </coordinates>
        </Point>
      </Placemark>
      <Placemark>
        <name>東馬肚坑左源無名瀑布02</name>
        <styleUrl>#icon-1892-0288D1-nodesc</styleUrl>
        <Point>
          <coordinates>
            114.252967,22.413779,0
          </coordinates>
        </Point>
      </Placemark>
      <Placemark>
        <name>靈象石澗無名瀑布</name>
        <styleUrl>#icon-1892-0288D1-nodesc</styleUrl>
        <Point>
          <coordinates>
            114.255317,22.410833,0
          </coordinates>
        </Point>
      </Placemark>
      <Placemark>
        <name>馬頭坑燈籠瀑</name>
        <styleUrl>#icon-1892-0288D1-nodesc</styleUrl>
        <Point>
          <coordinates>
            114.249085,22.410205,0
          </coordinates>
        </Point>
      </Placemark>
      <Placemark>
        <name>吊手岩南坑無名瀑布</name>
        <styleUrl>#icon-1892-0288D1-nodesc</styleUrl>
        <Point>
          <coordinates>
            114.245595,22.410815,0
          </coordinates>
        </Point>
      </Placemark>
      <Placemark>
        <name>折雁坑無名瀑布</name>
        <styleUrl>#icon-1892-0288D1-nodesc</styleUrl>
        <Point>
          <coordinates>
            114.242184,22.41673,0
          </coordinates>
        </Point>
      </Placemark>
      <Placemark>
        <name>牛樟石澗無名瀑布</name>
        <styleUrl>#icon-1892-0288D1-nodesc</styleUrl>
        <Point>
          <coordinates>
            114.250093,22.418848,0
          </coordinates>
        </Point>
      </Placemark>
      <Placemark>
        <name>茅坪坑無名瀑布</name>
        <styleUrl>#icon-1892-0288D1-nodesc</styleUrl>
        <Point>
          <coordinates>
            114.238247,22.387597,0
          </coordinates>
        </Point>
      </Placemark>
      <Placemark>
        <name>大腦石澗大腦飛瀑</name>
        <styleUrl>#icon-1892-0288D1-nodesc</styleUrl>
        <Point>
          <coordinates>
            114.23281,22.36388,0
          </coordinates>
        </Point>
      </Placemark>
      <Placemark>
        <name>風門石澗無名瀑布</name>
        <styleUrl>#icon-1892-0288D1-nodesc</styleUrl>
        <Point>
          <coordinates>
            114.240849,22.249974,0
          </coordinates>
        </Point>
      </Placemark>
      <Placemark>
        <name>紫潭石澗無名瀑布</name>
        <styleUrl>#icon-1892-0288D1-nodesc</styleUrl>
        <Point>
          <coordinates>
            114.208398,22.251728,0
          </coordinates>
        </Point>
      </Placemark>
      <Placemark>
        <name>紫深石澗無名瀑布</name>
        <styleUrl>#icon-1892-0288D1-nodesc</styleUrl>
        <Point>
          <coordinates>
            114.194387,22.25358,0
          </coordinates>
        </Point>
      </Placemark>
      <Placemark>
        <name>草城右澗無名瀑布</name>
        <styleUrl>#icon-1892-0288D1-nodesc</styleUrl>
        <Point>
          <coordinates>
            114.154269,22.394612,0
          </coordinates>
        </Point>
      </Placemark>
      <Placemark>
        <name>蝦公坑無名瀑布</name>
        <styleUrl>#icon-1892-0288D1-nodesc</styleUrl>
        <Point>
          <coordinates>
            114.160034,22.39228,0
          </coordinates>
        </Point>
      </Placemark>
      <Placemark>
        <name>神秀坑無名瀑布</name>
        <styleUrl>#icon-1892-0288D1-nodesc</styleUrl>
        <Point>
          <coordinates>
            114.16448,22.384246,0
          </coordinates>
        </Point>
      </Placemark>
      <Placemark>
        <name>香粉寮坑無名瀑布</name>
        <styleUrl>#icon-1892-0288D1-nodesc</styleUrl>
        <Point>
          <coordinates>
            114.163546,22.378163,0
          </coordinates>
        </Point>
      </Placemark>
      <Placemark>
        <name>近香粉寮新村無名瀑布</name>
        <styleUrl>#icon-1892-0288D1-nodesc</styleUrl>
        <Point>
          <coordinates>
            114.163589,22.376149,0
          </coordinates>
        </Point>
      </Placemark>
      <Placemark>
        <name>雙鹿石澗無名瀑布</name>
        <styleUrl>#icon-1892-0288D1-nodesc</styleUrl>
        <Point>
          <coordinates>
            114.350024,22.405135,0
          </coordinates>
        </Point>
      </Placemark>
      <Placemark>
        <name>臥龍石澗無名瀑布01</name>
        <styleUrl>#icon-1892-0288D1-nodesc</styleUrl>
        <Point>
          <coordinates>
            113.962197,22.274138,0
          </coordinates>
        </Point>
      </Placemark>
      <Placemark>
        <name>臥龍石澗無名瀑布02</name>
        <styleUrl>#icon-1892-0288D1-nodesc</styleUrl>
        <Point>
          <coordinates>
            113.961278,22.273163,0
          </coordinates>
        </Point>
      </Placemark>
      <Placemark>
        <name>龍嚎石澗無名瀑布</name>
        <styleUrl>#icon-1892-0288D1-nodesc</styleUrl>
        <Point>
          <coordinates>
            113.96244,22.266783,0
          </coordinates>
        </Point>
      </Placemark>
      <Placemark>
        <name>黃龍石澗無名瀑布01</name>
        <styleUrl>#icon-1892-0288D1-nodesc</styleUrl>
        <Point>
          <coordinates>
            113.962684,22.266442,0
          </coordinates>
        </Point>
      </Placemark>
      <Placemark>
        <name>黃龍石澗無名瀑布02</name>
        <styleUrl>#icon-1892-0288D1-nodesc</styleUrl>
        <Point>
          <coordinates>
            113.963005,22.266241,0
          </coordinates>
        </Point>
      </Placemark>
      <Placemark>
        <name>黃龍石澗無名瀑布03</name>
        <styleUrl>#icon-1892-0288D1-nodesc</styleUrl>
        <Point>
          <coordinates>
            113.96553,22.263778,0
          </coordinates>
        </Point>
      </Placemark>
      <Placemark>
        <name>黃龍石澗無名瀑布04</name>
        <styleUrl>#icon-1892-0288D1-nodesc</styleUrl>
        <Point>
          <coordinates>
            113.965523,22.263468,0
          </coordinates>
        </Point>
      </Placemark>
      <Placemark>
        <name>黃龍石澗無名瀑布05</name>
        <styleUrl>#icon-1892-0288D1-nodesc</styleUrl>
        <Point>
          <coordinates>
            113.965608,22.263495,0
          </coordinates>
        </Point>
      </Placemark>
      <Placemark>
        <name>右龍石澗無名瀑布</name>
        <styleUrl>#icon-1892-0288D1-nodesc</styleUrl>
        <Point>
          <coordinates>
            113.961143,22.262429,0
          </coordinates>
        </Point>
      </Placemark>
      <Placemark>
        <name>右龍石澗無名瀑布</name>
        <styleUrl>#icon-1892-0288D1-nodesc</styleUrl>
        <Point>
          <coordinates>
            113.961261,22.262123,0
          </coordinates>
        </Point>
      </Placemark>
      <Placemark>
        <name>小藏龍無名瀑布</name>
        <styleUrl>#icon-1892-0288D1-nodesc</styleUrl>
        <Point>
          <coordinates>
            113.956745,22.268844,0
          </coordinates>
        </Point>
      </Placemark>
      <Placemark>
        <name>藏龍石澗無名瀑布01</name>
        <styleUrl>#icon-1892-0288D1-nodesc</styleUrl>
        <Point>
          <coordinates>
            113.957027,22.267962,0
          </coordinates>
        </Point>
      </Placemark>
      <Placemark>
        <name>藏龍石澗無名瀑布02</name>
        <styleUrl>#icon-1892-0288D1-nodesc</styleUrl>
        <Point>
          <coordinates>
            113.956891,22.267283,0
          </coordinates>
        </Point>
      </Placemark>
      <Placemark>
        <name>藏龍石澗無名瀑布03</name>
        <styleUrl>#icon-1892-0288D1-nodesc</styleUrl>
        <Point>
          <coordinates>
            113.956748,22.267112,0
          </coordinates>
        </Point>
      </Placemark>
      <Placemark>
        <name>藏龍石澗無名瀑布04</name>
        <styleUrl>#icon-1892-0288D1-nodesc</styleUrl>
        <Point>
          <coordinates>
            113.955662,22.264205,0
          </coordinates>
        </Point>
      </Placemark>
      <Placemark>
        <name>藏龍中源無名瀑布</name>
        <styleUrl>#icon-1892-0288D1-nodesc</styleUrl>
        <Point>
          <coordinates>
            113.956644,22.265601,0
          </coordinates>
        </Point>
      </Placemark>
      <Placemark>
        <name>牛塘北坑左源無名瀑布</name>
        <styleUrl>#icon-1892-0288D1-nodesc</styleUrl>
        <Point>
          <coordinates>
            113.938254,22.249335,0
          </coordinates>
        </Point>
      </Placemark>
      <Placemark>
        <name>西龍石澗無名瀑布</name>
        <styleUrl>#icon-1892-0288D1-nodesc</styleUrl>
        <Point>
          <coordinates>
            113.946871,22.252278,0
          </coordinates>
        </Point>
      </Placemark>
      <Placemark>
        <name>石獅西右坑無名瀑布</name>
        <styleUrl>#icon-1892-0288D1-nodesc</styleUrl>
        <Point>
          <coordinates>
            113.940606,22.262016,0
          </coordinates>
        </Point>
      </Placemark>
      <Placemark>
        <name>東龍石澗無名瀑布</name>
        <styleUrl>#icon-1892-0288D1-nodesc</styleUrl>
        <Point>
          <coordinates>
            113.949371,22.264974,0
          </coordinates>
        </Point>
      </Placemark>
      <Placemark>
        <name>東龍石澗虎嘯峽第一瀑</name>
        <styleUrl>#icon-1892-0288D1-nodesc</styleUrl>
        <Point>
          <coordinates>
            113.948175,22.26647,0
          </coordinates>
        </Point>
      </Placemark>
      <Placemark>
        <name>東龍石澗虎嘯峽第二瀑</name>
        <styleUrl>#icon-1892-0288D1-nodesc</styleUrl>
        <Point>
          <coordinates>
            113.948289,22.266351,0
          </coordinates>
        </Point>
      </Placemark>
      <Placemark>
        <name>東龍石澗虎嘯峽第三瀑</name>
        <styleUrl>#icon-1892-0288D1-nodesc</styleUrl>
        <Point>
          <coordinates>
            113.948398,22.266242,0
          </coordinates>
        </Point>
      </Placemark>
      <Placemark>
        <name>降龍石澗無名瀑布01</name>
        <styleUrl>#icon-1892-0288D1-nodesc</styleUrl>
        <Point>
          <coordinates>
            113.943842,22.257654,0
          </coordinates>
        </Point>
      </Placemark>
      <Placemark>
        <name>降龍石澗無名瀑布02</name>
        <styleUrl>#icon-1892-0288D1-nodesc</styleUrl>
        <Point>
          <coordinates>
            113.944711,22.257516,0
          </coordinates>
        </Point>
      </Placemark>
      <Placemark>
        <name>小青龍石澗無名瀑布</name>
        <styleUrl>#icon-1892-0288D1-nodesc</styleUrl>
        <Point>
          <coordinates>
            113.966669,22.246102,0
          </coordinates>
        </Point>
      </Placemark>
      <Placemark>
        <name>北天門石澗無名瀑布01</name>
        <styleUrl>#icon-1892-0288D1-nodesc</styleUrl>
        <Point>
          <coordinates>
            113.925551,22.254441,0
          </coordinates>
        </Point>
      </Placemark>
      <Placemark>
        <name>北天門石澗無名瀑布02</name>
        <styleUrl>#icon-1892-0288D1-nodesc</styleUrl>
        <Point>
          <coordinates>
            113.925155,22.253825,0
          </coordinates>
        </Point>
      </Placemark>
      <Placemark>
        <name>北天門石澗無名瀑布03</name>
        <styleUrl>#icon-1892-0288D1-nodesc</styleUrl>
        <Point>
          <coordinates>
            113.924725,22.253047,0
          </coordinates>
        </Point>
      </Placemark>
      <Placemark>
        <name>北天門石澗無名瀑布04</name>
        <styleUrl>#icon-1892-0288D1-nodesc</styleUrl>
        <Point>
          <coordinates>
            113.92218,22.250848,0
          </coordinates>
        </Point>
      </Placemark>
      <Placemark>
        <name>鳳峰北坑無名瀑布</name>
        <styleUrl>#icon-1892-0288D1-nodesc</styleUrl>
        <Point>
          <coordinates>
            113.919662,22.254772,0
          </coordinates>
        </Point>
      </Placemark>
      <Placemark>
        <name>彌東坑無名瀑布01</name>
        <styleUrl>#icon-1892-0288D1-nodesc</styleUrl>
        <Point>
          <coordinates>
            113.917091,22.259787,0
          </coordinates>
        </Point>
      </Placemark>
      <Placemark>
        <name>彌東坑無名瀑布02</name>
        <styleUrl>#icon-1892-0288D1-nodesc</styleUrl>
        <Point>
          <coordinates>
            113.918793,22.259061,0
          </coordinates>
        </Point>
      </Placemark>
      <Placemark>
        <name>彌間石澗無名瀑布</name>
        <styleUrl>#icon-1892-0288D1-nodesc</styleUrl>
        <Point>
          <coordinates>
            113.916873,22.266811,0
          </coordinates>
        </Point>
      </Placemark>
      <Placemark>
        <name>彌深石澗無名瀑布01</name>
        <styleUrl>#icon-1892-0288D1-nodesc</styleUrl>
        <Point>
          <coordinates>
            113.90504,22.263771,0
          </coordinates>
        </Point>
      </Placemark>
      <Placemark>
        <name>彌深石澗無名瀑布02</name>
        <styleUrl>#icon-1892-0288D1-nodesc</styleUrl>
        <Point>
          <coordinates>
            113.905562,22.264414,0
          </coordinates>
        </Point>
      </Placemark>
      <Placemark>
        <name>萬丈布石澗無名瀑布01</name>
        <styleUrl>#icon-1892-0288D1-nodesc</styleUrl>
        <Point>
          <coordinates>
            113.859178,22.23084,0
          </coordinates>
        </Point>
      </Placemark>
      <Placemark>
        <name>萬丈布石澗無名瀑布02</name>
        <styleUrl>#icon-1892-0288D1-nodesc</styleUrl>
        <Point>
          <coordinates>
            113.859604,22.230886,0
          </coordinates>
        </Point>
      </Placemark>
      <Placemark>
        <name>萬丈布石澗無名瀑布03</name>
        <styleUrl>#icon-1892-0288D1-nodesc</styleUrl>
        <Point>
          <coordinates>
            113.860195,22.230805,0
          </coordinates>
        </Point>
      </Placemark>
      <Placemark>
        <name>羌山東坑無名瀑布01</name>
        <styleUrl>#icon-1892-0288D1-nodesc</styleUrl>
        <Point>
          <coordinates>
            113.886025,22.231486,0
          </coordinates>
        </Point>
      </Placemark>
      <Placemark>
        <name>羌山東坑無名瀑布02</name>
        <styleUrl>#icon-1892-0288D1-nodesc</styleUrl>
        <Point>
          <coordinates>
            113.887735,22.230146,0
          </coordinates>
        </Point>
      </Placemark>
      <Placemark>
        <name>靈白中澗無名瀑布</name>
        <styleUrl>#icon-1892-0288D1-nodesc</styleUrl>
        <Point>
          <coordinates>
            113.869936,22.215741,0
          </coordinates>
        </Point>
      </Placemark>
      <Placemark>
        <name>苗笛竹坑無名瀑布01</name>
        <styleUrl>#icon-1892-0288D1-nodesc</styleUrl>
        <Point>
          <coordinates>
            113.877378,22.218183,0
          </coordinates>
        </Point>
      </Placemark>
      <Placemark>
        <name>苗笛竹坑無名瀑布02</name>
        <styleUrl>#icon-1892-0288D1-nodesc</styleUrl>
        <Point>
          <coordinates>
            113.877675,22.217858,0
          </coordinates>
        </Point>
      </Placemark>
      <Placemark>
        <name>猴塘溪無名瀑布</name>
        <styleUrl>#icon-1892-0288D1-nodesc</styleUrl>
        <Point>
          <coordinates>
            114.321762,22.439045,0
          </coordinates>
        </Point>
      </Placemark>
      <Placemark>
        <name>大藍湖石澗無名瀑布</name>
        <styleUrl>#icon-1892-0288D1-nodesc</styleUrl>
        <Point>
          <coordinates>
            114.230883,22.352151,0
          </coordinates>
        </Point>
      </Placemark>
      <Placemark>
        <name>壁山溪無名瀑布</name>
        <styleUrl>#icon-1892-0288D1-nodesc</styleUrl>
        <Point>
          <coordinates>
            114.250228,22.3719,0
          </coordinates>
        </Point>
      </Placemark>
      <Placemark>
        <name>石花坑無名瀑布</name>
        <styleUrl>#icon-1892-0288D1-nodesc</styleUrl>
        <Point>
          <coordinates>
            114.22832,22.38135,0
          </coordinates>
        </Point>
      </Placemark>
      <Placemark>
        <name>長連坑無名瀑布</name>
        <styleUrl>#icon-1892-0288D1-nodesc</styleUrl>
        <Point>
          <coordinates>
            114.215149,22.238593,0
          </coordinates>
        </Point>
      </Placemark>
      <Placemark>
        <name>老虎坑無名瀑布</name>
        <styleUrl>#icon-1892-0288D1-nodesc</styleUrl>
        <Point>
          <coordinates>
            114.211801,22.230867,0
          </coordinates>
        </Point>
      </Placemark>
      <Placemark>
        <name>金馬倫南坑無名瀑布</name>
        <styleUrl>#icon-1892-0288D1-nodesc</styleUrl>
        <Point>
          <coordinates>
            114.174033,22.254149,0
          </coordinates>
        </Point>
      </Placemark>
      <Placemark>
        <name>石壟仔坑無名瀑布</name>
        <styleUrl>#icon-1892-0288D1-nodesc</styleUrl>
        <Point>
          <coordinates>
            114.23953,22.394071,0
          </coordinates>
        </Point>
      </Placemark>
      <Placemark>
        <name>彎曲東坑無名瀑布</name>
        <styleUrl>#icon-1892-0288D1-nodesc</styleUrl>
        <Point>
          <coordinates>
            114.259273,22.402568,0
          </coordinates>
        </Point>
      </Placemark>
    </Folder>
  </Document>
</kml>
